{"type":"FeatureCollection","name":"heatnet_result","crs":{"type":"name","properties":{"name":"urn:ogc:def:crs:OGC:1.3:CRS84"}},"features":[{"type":"Feature","geometry":{"type":"LineString","coordinates":[[37.63805705,55.69701388],[37.63942619,55.69673529],[37.63946749,55.69674402],[37.63953815,55.69685183]]},"properties":{"id":"v1_seg_1","object_type":"heat_network","variant_id":"1","start_node_id":"v1_node_3","end_node_id":17,"flow_tph":20.63,"diameter":100,"length":107.05,"laying_method":"base","depth_start":null,"depth_end":null,"cost":9607277}},{"type":"Feature","geometry":{"type":"LineString","coordinates":[[37.63511999,55.69840925],[37.63531281,55.6984644],[37.63541706,55.69861473]]},"properties":{"id":"v1_seg_2","object_type":"heat_network","variant_id":"1","start_node_id":"v1_ch_4","end_node_id":5,"flow_tph":26.09,"diameter":125,"length":31.56,"laying_method":"base","depth_start":null,"depth_end":null,"cost":3069521}},{"type":"Feature","geometry":{"type":"LineString","coordinates":[[37.63304885,55.69970467],[37.63299494,55.69961769],[37.6332045,55.69957508]]},"properties":{"id":"v1_seg_3","object_type":"heat_network","variant_id":"1","start_node_id":"v1_ch_10","end_node_id":11,"flow_tph":4.08,"diameter":65,"length":24.26,"laying_method":"base","depth_start":null,"depth_end":null,"cost":1907396}},{"type":"Feature","geometry":{"type":"LineString","coordinates":[[37.63454345,55.69738149],[37.63452271,55.69737621],[37.63444627,55.69725239]]},"properties":{"id":"v1_seg_4","object_type":"heat_network","variant_id":"1","start_node_id":"v1_ch_3","end_node_id":9,"flow_tph":34.53,"diameter":125,"length":16.02,"laying_method":"base","depth_start":null,"depth_end":null,"cost":1558818}},{"type":"Feature","geometry":{"type":"LineString","coordinates":[[37.63511999,55.69840925],[37.63499837,55.69855468],[37.63554751,55.69941591]]},"properties":{"id":"v1_seg_5","object_type":"heat_network","variant_id":"1","start_node_id":"v1_ch_4","end_node_id":"v1_ch_7","flow_tph":158.85,"diameter":250,"length":119.78,"laying_method":"base","depth_start":null,"depth_end":null,"cost":16209314}},{"type":"Feature","geometry":{"type":"LineString","coordinates":[[37.63554751,55.69941591],[37.63568516,55.69963178]]},"properties":{"id":"v1_seg_6","object_type":"heat_network","variant_id":"1","start_node_id":"v1_ch_7","end_node_id":"v1_ch_8","flow_tph":66.46,"diameter":200,"length":25.54,"laying_method":"base","depth_start":null,"depth_end":null,"cost":3071508}},{"type":"Feature","geometry":{"type":"LineString","coordinates":[[37.63554751,55.69941591],[37.63451834,55.6996252],[37.63451398,55.69962392]]},"properties":{"id":"v1_seg_7","object_type":"heat_network","variant_id":"1","start_node_id":"v1_ch_7","end_node_id":"v1_ch_9","flow_tph":92.39,"diameter":200,"length":69.06,"laying_method":"base","depth_start":null,"depth_end":null,"cost":8306714}},{"type":"Feature","geometry":{"type":"LineString","coordinates":[[37.63247294,55.70023727],[37.63206344,55.70013145],[37.63201223,55.70004826]]},"properties":{"id":"v1_seg_8","object_type":"heat_network","variant_id":"1","start_node_id":"v1_ch_11","end_node_id":6,"flow_tph":15.99,"diameter":100,"length":38.11,"laying_method":"base","depth_start":null,"depth_end":null,"cost":3420177}},{"type":"Feature","geometry":{"type":"LineString","coordinates":[[37.64017055,55.69946785],[37.64135361,55.6992272],[37.64146853,55.69908923],[37.64102644,55.69839609],[37.64094454,55.69837266],[37.64076447,55.69840739]]},"properties":{"id":"v1_seg_9","object_type":"heat_network","variant_id":"1","start_node_id":"v1_node_2","end_node_id":16,"flow_tph":76.27,"diameter":200,"length":195.74,"laying_method":"base","depth_start":null,"depth_end":null,"cost":23542974}},{"type":"Feature","geometry":{"type":"LineString","coordinates":[[37.63568516,55.69963178],[37.63603326,55.70017769],[37.63614888,55.70020703],[37.63638185,55.7001552]]},"properties":{"id":"v1_seg_10","object_type":"heat_network","variant_id":"1","start_node_id":"v1_ch_8","end_node_id":4,"flow_tph":47.7,"diameter":150,"length":88.29,"laying_method":"base","depth_start":null,"depth_end":null,"cost":9314849}},{"type":"Feature","geometry":{"type":"LineString","coordinates":[[37.63432492,55.69755418],[37.63387735,55.69754215]]},"properties":{"id":"v1_seg_11","object_type":"heat_network","variant_id":"1","start_node_id":"v1_ch_5","end_node_id":"v1_ch_6","flow_tph":71.39,"diameter":200,"length":28.17,"laying_method":"base","depth_start":null,"depth_end":null,"cost":3387634}},{"type":"Feature","geometry":{"type":"LineString","coordinates":[[37.63387735,55.69754215],[37.63379556,55.69753996],[37.63375244,55.69747233]]},"properties":{"id":"v1_seg_12","object_type":"heat_network","variant_id":"1","start_node_id":"v1_ch_6","end_node_id":14,"flow_tph":19.73,"diameter":100,"length":13.15,"laying_method":"base","depth_start":null,"depth_end":null,"cost":1179948}},{"type":"Feature","geometry":{"type":"LineString","coordinates":[[37.63387735,55.69754215],[37.63384177,55.69762962],[37.63390106,55.69772261]]},"properties":{"id":"v1_seg_13","object_type":"heat_network","variant_id":"1","start_node_id":"v1_ch_6","end_node_id":13,"flow_tph":19.77,"diameter":100,"length":20.99,"laying_method":"base","depth_start":null,"depth_end":null,"cost":1883714}},{"type":"Feature","geometry":{"type":"LineString","coordinates":[[37.63387735,55.69754215],[37.6329432,55.69773832],[37.63278035,55.69769504],[37.63233843,55.69700187],[37.63205344,55.69692613],[37.63199357,55.69693831],[37.63197748,55.69696123],[37.63203444,55.69704569]]},"properties":{"id":"v1_seg_14","object_type":"heat_network","variant_id":"1","start_node_id":"v1_ch_6","end_node_id":15,"flow_tph":31.89,"diameter":125,"length":192.56,"laying_method":"base","depth_start":null,"depth_end":null,"cost":18731691}},{"type":"Feature","geometry":{"type":"LineString","coordinates":[[37.63451398,55.69962392],[37.63349915,55.6998276],[37.63305127,55.69970859],[37.63304885,55.69970467]]},"properties":{"id":"v1_seg_15","object_type":"heat_network","variant_id":"1","start_node_id":"v1_ch_9","end_node_id":"v1_ch_10","flow_tph":67.52,"diameter":200,"length":99.27,"laying_method":"base","depth_start":null,"depth_end":null,"cost":11939816}},{"type":"Feature","geometry":{"type":"LineString","coordinates":[[37.63304885,55.69970467],[37.63283718,55.6997477],[37.63245401,55.70020758],[37.63247294,55.70023727]]},"properties":{"id":"v1_seg_16","object_type":"heat_network","variant_id":"1","start_node_id":"v1_ch_10","end_node_id":"v1_ch_11","flow_tph":63.44,"diameter":150,"length":74.22,"laying_method":"base","depth_start":null,"depth_end":null,"cost":7830872}},{"type":"Feature","geometry":{"type":"LineString","coordinates":[[37.6382084,55.69784617],[37.6382803,55.69795679]]},"properties":{"id":"v1_seg_17","object_type":"heat_network","variant_id":"1","start_node_id":"v1_ch_1","end_node_id":7,"flow_tph":27.82,"diameter":125,"length":13.12,"laying_method":"base","depth_start":null,"depth_end":null,"cost":1275824}},{"type":"Feature","geometry":{"type":"LineString","coordinates":[[37.63247294,55.70023727],[37.63252946,55.70032593],[37.63256619,55.70033517],[37.6328466,55.70027576]]},"properties":{"id":"v1_seg_18","object_type":"heat_network","variant_id":"1","start_node_id":"v1_ch_11","end_node_id":3,"flow_tph":29.42,"diameter":125,"length":31.84,"laying_method":"base","depth_start":null,"depth_end":null,"cost":3097210}},{"type":"Feature","geometry":{"type":"LineString","coordinates":[[37.64012619,55.69947688],[37.64017055,55.69946785]]},"properties":{"id":"v1_seg_19","object_type":"heat_network","variant_id":"1","start_node_id":"v1_tie_2","end_node_id":"v1_node_2","flow_tph":76.27,"diameter":200,"length":2.96,"laying_method":"special","depth_start":null,"depth_end":null,"cost":374319}},{"type":"Feature","geometry":{"type":"LineString","coordinates":[[37.63855151,55.6977727],[37.63852286,55.69777873]]},"properties":{"id":"v1_seg_20","object_type":"heat_network","variant_id":"1","start_node_id":"v1_tie_1","end_node_id":"v1_node_1","flow_tph":391.82,"diameter":300,"length":1.92,"laying_method":"special","depth_start":null,"depth_end":null,"cost":302767}},{"type":"Feature","geometry":{"type":"LineString","coordinates":[[37.6382084,55.69784617],[37.63793466,55.69790186],[37.63712034,55.69768551],[37.63686162,55.69727976],[37.63621018,55.69710667],[37.63585096,55.69717972]]},"properties":{"id":"v1_seg_21","object_type":"heat_network","variant_id":"1","start_node_id":"v1_ch_1","end_node_id":"v1_ch_2","flow_tph":364.0,"diameter":300,"length":192.11,"laying_method":"base","depth_start":null,"depth_end":null,"cost":28821214}},{"type":"Feature","geometry":{"type":"LineString","coordinates":[[37.63585096,55.69717972],[37.63583181,55.69720272],[37.63583836,55.69722367],[37.63609324,55.69729657]]},"properties":{"id":"v1_seg_22","object_type":"heat_network","variant_id":"1","start_node_id":"v1_ch_2","end_node_id":10,"flow_tph":33.14,"diameter":125,"length":23.16,"laying_method":"base","depth_start":null,"depth_end":null,"cost":2252482}},{"type":"Feature","geometry":{"type":"LineString","coordinates":[[37.63585096,55.69717972],[37.63468116,55.69741651],[37.63454345,55.69738149]]},"properties":{"id":"v1_seg_23","object_type":"heat_network","variant_id":"1","start_node_id":"v1_ch_2","end_node_id":"v1_ch_3","flow_tph":330.86,"diameter":300,"length":87.61,"laying_method":"base","depth_start":null,"depth_end":null,"cost":13143129}},{"type":"Feature","geometry":{"type":"LineString","coordinates":[[37.63454345,55.69738149],[37.63445523,55.69739775],[37.63432492,55.69755418]]},"properties":{"id":"v1_seg_24","object_type":"heat_network","variant_id":"1","start_node_id":"v1_ch_3","end_node_id":"v1_ch_5","flow_tph":296.33,"diameter":300,"length":25.07,"laying_method":"base","depth_start":null,"depth_end":null,"cost":3761713}},{"type":"Feature","geometry":{"type":"LineString","coordinates":[[37.6380124,55.69702296],[37.63805705,55.69701388]]},"properties":{"id":"v1_seg_25","object_type":"heat_network","variant_id":"1","start_node_id":"v1_tie_3","end_node_id":"v1_node_3","flow_tph":20.63,"diameter":100,"length":2.98,"laying_method":"special","depth_start":null,"depth_end":null,"cost":281111}},{"type":"Feature","geometry":{"type":"LineString","coordinates":[[37.63568516,55.69963178],[37.63543422,55.69968208],[37.63458293,55.69985446]]},"properties":{"id":"v1_seg_26","object_type":"heat_network","variant_id":"1","start_node_id":"v1_ch_8","end_node_id":2,"flow_tph":18.76,"diameter":100,"length":73.58,"laying_method":"base","depth_start":null,"depth_end":null,"cost":6603835}},{"type":"Feature","geometry":{"type":"LineString","coordinates":[[37.63451398,55.69962392],[37.63448463,55.69961535],[37.6344054,55.69948106]]},"properties":{"id":"v1_seg_27","object_type":"heat_network","variant_id":"1","start_node_id":"v1_ch_9","end_node_id":1,"flow_tph":24.87,"diameter":125,"length":17.83,"laying_method":"base","depth_start":null,"depth_end":null,"cost":1734499}},{"type":"Feature","geometry":{"type":"LineString","coordinates":[[37.63852286,55.69777873],[37.63820765,55.69784501],[37.6382084,55.69784617]]},"properties":{"id":"v1_seg_28","object_type":"heat_network","variant_id":"1","start_node_id":"v1_node_1","end_node_id":"v1_ch_1","flow_tph":391.82,"diameter":300,"length":21.28,"laying_method":"base","depth_start":null,"depth_end":null,"cost":3192356}},{"type":"Feature","geometry":{"type":"LineString","coordinates":[[37.63247294,55.70023727],[37.63236792,55.70028377],[37.63220263,55.70031442]]},"properties":{"id":"v1_seg_29","object_type":"heat_network","variant_id":"1","start_node_id":"v1_ch_11","end_node_id":8,"flow_tph":18.03,"diameter":100,"length":19.32,"laying_method":"base","depth_start":null,"depth_end":null,"cost":1734163}},{"type":"Feature","geometry":{"type":"LineString","coordinates":[[37.63432492,55.69755418],[37.63432114,55.69755871],[37.63480621,55.6983195],[37.63511999,55.69840925]]},"properties":{"id":"v1_seg_30","object_type":"heat_network","variant_id":"1","start_node_id":"v1_ch_5","end_node_id":"v1_ch_4","flow_tph":224.94,"diameter":250,"length":112.67,"laying_method":"base","depth_start":null,"depth_end":null,"cost":15246389}},{"type":"Feature","geometry":{"type":"LineString","coordinates":[[37.63511999,55.69840925],[37.63365491,55.69870455],[37.63327167,55.69862792],[37.63313932,55.69865307]]},"properties":{"id":"v1_seg_31","object_type":"heat_network","variant_id":"1","start_node_id":"v1_ch_4","end_node_id":12,"flow_tph":40.0,"diameter":125,"length":132.11,"laying_method":"base","depth_start":null,"depth_end":null,"cost":12851344}},{"type":"Feature","geometry":{"type":"Point","coordinates":[37.63554751,55.69941591]},"properties":{"id":"v1_ch_7","object_type":"heat_chamber","variant_id":"1","diameter":250,"cost":5000000}},{"type":"Feature","geometry":{"type":"Point","coordinates":[37.63387735,55.69754215]},"properties":{"id":"v1_ch_6","object_type":"heat_chamber","variant_id":"1","diameter":200,"cost":3000000}},{"type":"Feature","geometry":{"type":"Point","coordinates":[37.63304885,55.69970467]},"properties":{"id":"v1_ch_10","object_type":"heat_chamber","variant_id":"1","diameter":200,"cost":3000000}},{"type":"Feature","geometry":{"type":"Point","coordinates":[37.63855151,55.6977727]},"properties":{"id":"v1_tie_1","object_type":"heat_chamber","variant_id":"1","diameter":300,"cost":5000000}},{"type":"Feature","geometry":{"type":"Point","coordinates":[37.63585096,55.69717972]},"properties":{"id":"v1_ch_2","object_type":"heat_chamber","variant_id":"1","diameter":300,"cost":5000000}},{"type":"Feature","geometry":{"type":"Point","coordinates":[37.63454345,55.69738149]},"properties":{"id":"v1_ch_3","object_type":"heat_chamber","variant_id":"1","diameter":300,"cost":5000000}},{"type":"Feature","geometry":{"type":"Point","coordinates":[37.6380124,55.69702296]},"properties":{"id":"v1_tie_3","object_type":"heat_chamber","variant_id":"1","diameter":100,"cost":3000000}},{"type":"Feature","geometry":{"type":"Point","coordinates":[37.6382084,55.69784617]},"properties":{"id":"v1_ch_1","object_type":"heat_chamber","variant_id":"1","diameter":300,"cost":5000000}},{"type":"Feature","geometry":{"type":"Point","coordinates":[37.63568516,55.69963178]},"properties":{"id":"v1_ch_8","object_type":"heat_chamber","variant_id":"1","diameter":200,"cost":3000000}},{"type":"Feature","geometry":{"type":"Point","coordinates":[37.63451398,55.69962392]},"properties":{"id":"v1_ch_9","object_type":"heat_chamber","variant_id":"1","diameter":200,"cost":3000000}},{"type":"Feature","geometry":{"type":"Point","coordinates":[37.63247294,55.70023727]},"properties":{"id":"v1_ch_11","object_type":"heat_chamber","variant_id":"1","diameter":150,"cost":3000000}},{"type":"Feature","geometry":{"type":"Point","coordinates":[37.63511999,55.69840925]},"properties":{"id":"v1_ch_4","object_type":"heat_chamber","variant_id":"1","diameter":250,"cost":5000000}},{"type":"Feature","geometry":{"type":"Point","coordinates":[37.64012619,55.69947688]},"properties":{"id":"v1_tie_2","object_type":"heat_chamber","variant_id":"1","diameter":200,"cost":3000000}},{"type":"Feature","geometry":{"type":"Point","coordinates":[37.63432492,55.69755418]},"properties":{"id":"v1_ch_5","object_type":"heat_chamber","variant_id":"1","diameter":300,"cost":5000000}},{"type":"Feature","geometry":{"type":"Point","coordinates":[37.64017055,55.69946785]},"properties":{"id":"v1_node_2","object_type":"technical_node","variant_id":"1"}},{"type":"Feature","geometry":{"type":"Point","coordinates":[37.63852286,55.69777873]},"properties":{"id":"v1_node_1","object_type":"technical_node","variant_id":"1"}},{"type":"Feature","geometry":{"type":"Point","coordinates":[37.63805705,55.69701388]},"properties":{"id":"v1_node_3","object_type":"technical_node","variant_id":"1"}},{"type":"Feature","geometry":null,"properties":{"id":"summary_1","object_type":"variant_summary","variant_id":"1","rank":1,"variant_name":"Кратчайший: спрямление, общая сеть","variant_description":"Кратчайшая трассировка со спрямлением: после поиска по сетке трасса спрямляется произвольным углом там, где прямая свободна (ТП от 21.09 §2.1 допускает любой поворот до 90°); точки объединяются в одно дерево","routing_method":"grid","routing_millis":8070,"engineering_millis":2,"compute_millis":8072,"construction_cost":275634577,"chamber_construction_cost":56000000,"existing_chamber_tie_in_count":0,"existing_chamber_tie_in_cost":0,"unconnected_penalty":0,"calculated_cost":275634577,"new_network_length":1901.34,"score":13.4218,"unconnected_oks_ids":[]}},{"type":"Feature","geometry":{"type":"LineString","coordinates":[[37.63805705,55.69701388],[37.63942619,55.69673529],[37.63946749,55.69674402],[37.63953815,55.69685183]]},"properties":{"id":"v2_seg_1","object_type":"heat_network","variant_id":"2","start_node_id":"v2_node_3","end_node_id":17,"flow_tph":20.63,"diameter":100,"length":107.05,"laying_method":"base","depth_start":null,"depth_end":null,"cost":9607277}},{"type":"Feature","geometry":{"type":"LineString","coordinates":[[37.6380124,55.69702296],[37.63805705,55.69701388]]},"properties":{"id":"v2_seg_2","object_type":"heat_network","variant_id":"2","start_node_id":"v2_tie_3","end_node_id":"v2_node_3","flow_tph":20.63,"diameter":100,"length":2.98,"laying_method":"special","depth_start":null,"depth_end":null,"cost":281111}},{"type":"Feature","geometry":{"type":"LineString","coordinates":[[37.64012619,55.69947688],[37.64017055,55.69946785]]},"properties":{"id":"v2_seg_3","object_type":"heat_network","variant_id":"2","start_node_id":"v2_tie_2","end_node_id":"v2_node_2","flow_tph":76.27,"diameter":200,"length":2.96,"laying_method":"special","depth_start":null,"depth_end":null,"cost":374319}},{"type":"Feature","geometry":{"type":"LineString","coordinates":[[37.63849311,55.69776064],[37.63536305,55.69839725],[37.63531281,55.6984644],[37.63541706,55.69861473]]},"properties":{"id":"v2_seg_4","object_type":"heat_network","variant_id":"2","start_node_id":"v2_node_5","end_node_id":5,"flow_tph":26.09,"diameter":125,"length":235.2,"laying_method":"base","depth_start":null,"depth_end":null,"cost":22879532}},{"type":"Feature","geometry":{"type":"LineString","coordinates":[[37.63294318,55.69773832],[37.63288245,55.69781121],[37.63334594,55.6985382],[37.63327167,55.69862792],[37.63313932,55.69865307]]},"properties":{"id":"v2_seg_5","object_type":"heat_network","variant_id":"2","start_node_id":"v2_ch_6","end_node_id":12,"flow_tph":40.0,"diameter":125,"length":114.77,"laying_method":"base","depth_start":null,"depth_end":null,"cost":11164080}},{"type":"Feature","geometry":{"type":"LineString","coordinates":[[37.63852286,55.69777873],[37.63820765,55.69784501],[37.6382803,55.69795679]]},"properties":{"id":"v2_seg_6","object_type":"heat_network","variant_id":"2","start_node_id":"v2_node_1","end_node_id":7,"flow_tph":27.82,"diameter":125,"length":34.39,"laying_method":"base","depth_start":null,"depth_end":null,"cost":3345764}},{"type":"Feature","geometry":{"type":"LineString","coordinates":[[37.63843077,55.69764214],[37.63740535,55.69776123],[37.63712034,55.69768551],[37.63686162,55.69727976],[37.63621018,55.69710667],[37.63585096,55.69717972]]},"properties":{"id":"v2_seg_7","object_type":"heat_network","variant_id":"2","start_node_id":"v2_node_4","end_node_id":"v2_ch_1","flow_tph":179.06,"diameter":250,"length":202.86,"laying_method":"base","depth_start":null,"depth_end":null,"cost":27451548}},{"type":"Feature","geometry":{"type":"LineString","coordinates":[[37.63846184,55.69763853],[37.63843077,55.69764214]]},"properties":{"id":"v2_seg_8","object_type":"heat_network","variant_id":"2","start_node_id":106,"end_node_id":"v2_node_4","flow_tph":179.06,"diameter":250,"length":1.99,"laying_method":"special","depth_start":null,"depth_end":null,"cost":283341}},{"type":"Feature","geometry":{"type":"LineString","coordinates":[[37.63585096,55.69717972],[37.63468116,55.69741651],[37.63455798,55.69738518]]},"properties":{"id":"v2_seg_9","object_type":"heat_network","variant_id":"2","start_node_id":"v2_ch_1","end_node_id":"v2_ch_2","flow_tph":145.92,"diameter":200,"length":86.61,"laying_method":"base","depth_start":null,"depth_end":null,"cost":10416524}},{"type":"Feature","geometry":{"type":"LineString","coordinates":[[37.63455798,55.69738518],[37.63452271,55.69737621],[37.63444627,55.69725239]]},"properties":{"id":"v2_seg_10","object_type":"heat_network","variant_id":"2","start_node_id":"v2_ch_2","end_node_id":9,"flow_tph":34.53,"diameter":125,"length":17.03,"laying_method":"base","depth_start":null,"depth_end":null,"cost":1656299}},{"type":"Feature","geometry":{"type":"LineString","coordinates":[[37.63455798,55.69738518],[37.63380452,55.69753814]]},"properties":{"id":"v2_seg_11","object_type":"heat_network","variant_id":"2","start_node_id":"v2_ch_2","end_node_id":"v2_ch_3","flow_tph":111.39,"diameter":200,"length":50.33,"laying_method":"base","depth_start":null,"depth_end":null,"cost":6053304}},{"type":"Feature","geometry":{"type":"LineString","coordinates":[[37.6345144,55.69962361],[37.63349915,55.6998276],[37.63305127,55.69970859],[37.63304885,55.69970467]]},"properties":{"id":"v2_seg_12","object_type":"heat_network","variant_id":"2","start_node_id":"v2_ch_7","end_node_id":"v2_ch_8","flow_tph":67.52,"diameter":200,"length":99.31,"laying_method":"base","depth_start":null,"depth_end":null,"cost":11944186}},{"type":"Feature","geometry":{"type":"LineString","coordinates":[[37.63304885,55.69970467],[37.63299494,55.69961769],[37.6332045,55.69957508]]},"properties":{"id":"v2_seg_13","object_type":"heat_network","variant_id":"2","start_node_id":"v2_ch_8","end_node_id":11,"flow_tph":4.08,"diameter":65,"length":24.26,"laying_method":"base","depth_start":null,"depth_end":null,"cost":1907396}},{"type":"Feature","geometry":{"type":"LineString","coordinates":[[37.63304885,55.69970467],[37.63283718,55.6997477],[37.63245401,55.70020758],[37.63247294,55.70023727]]},"properties":{"id":"v2_seg_14","object_type":"heat_network","variant_id":"2","start_node_id":"v2_ch_8","end_node_id":"v2_ch_9","flow_tph":63.44,"diameter":150,"length":74.22,"laying_method":"base","depth_start":null,"depth_end":null,"cost":7830872}},{"type":"Feature","geometry":{"type":"LineString","coordinates":[[37.63612566,55.70022085],[37.63576855,55.69967653],[37.63551815,55.69961]]},"properties":{"id":"v2_seg_15","object_type":"heat_network","variant_id":"2","start_node_id":"v2_ch_4","end_node_id":"v2_ch_5","flow_tph":111.15,"diameter":200,"length":82.0,"laying_method":"base","depth_start":null,"depth_end":null,"cost":9862874}},{"type":"Feature","geometry":{"type":"LineString","coordinates":[[37.63551815,55.69961],[37.63515779,55.69951426],[37.63455906,55.69963601],[37.6345144,55.69962361]]},"properties":{"id":"v2_seg_16","object_type":"heat_network","variant_id":"2","start_node_id":"v2_ch_5","end_node_id":"v2_ch_7","flow_tph":92.39,"diameter":200,"length":68.16,"laying_method":"base","depth_start":null,"depth_end":null,"cost":8197961}},{"type":"Feature","geometry":{"type":"LineString","coordinates":[[37.63551815,55.69961],[37.63543422,55.69968208],[37.63458293,55.69985446]]},"properties":{"id":"v2_seg_17","object_type":"heat_network","variant_id":"2","start_node_id":"v2_ch_5","end_node_id":2,"flow_tph":18.76,"diameter":100,"length":66.45,"laying_method":"base","depth_start":null,"depth_end":null,"cost":5963412}},{"type":"Feature","geometry":{"type":"LineString","coordinates":[[37.63585096,55.69717972],[37.63583181,55.69720272],[37.63583836,55.69722367],[37.63609324,55.69729657]]},"properties":{"id":"v2_seg_18","object_type":"heat_network","variant_id":"2","start_node_id":"v2_ch_1","end_node_id":10,"flow_tph":33.14,"diameter":125,"length":23.16,"laying_method":"base","depth_start":null,"depth_end":null,"cost":2252482}},{"type":"Feature","geometry":{"type":"LineString","coordinates":[[37.63612566,55.70022085],[37.63614097,55.70020299],[37.63638185,55.7001552]]},"properties":{"id":"v2_seg_19","object_type":"heat_network","variant_id":"2","start_node_id":"v2_ch_4","end_node_id":4,"flow_tph":47.7,"diameter":150,"length":18.26,"laying_method":"base","depth_start":null,"depth_end":null,"cost":1926207}},{"type":"Feature","geometry":{"type":"LineString","coordinates":[[37.63294318,55.69773832],[37.63278035,55.69769504],[37.63233843,55.69700187],[37.63205344,55.69692613],[37.63199357,55.69693831],[37.63197748,55.69696123],[37.63203444,55.69704569]]},"properties":{"id":"v2_seg_20","object_type":"heat_network","variant_id":"2","start_node_id":"v2_ch_6","end_node_id":15,"flow_tph":31.89,"diameter":125,"length":129.91,"laying_method":"base","depth_start":null,"depth_end":null,"cost":12637478}},{"type":"Feature","geometry":{"type":"LineString","coordinates":[[37.6345144,55.69962361],[37.63448463,55.69961535],[37.6344054,55.69948106]]},"properties":{"id":"v2_seg_21","object_type":"heat_network","variant_id":"2","start_node_id":"v2_ch_7","end_node_id":1,"flow_tph":24.87,"diameter":125,"length":17.84,"laying_method":"base","depth_start":null,"depth_end":null,"cost":1735281}},{"type":"Feature","geometry":{"type":"LineString","coordinates":[[37.63855151,55.6977727],[37.63852286,55.69777873]]},"properties":{"id":"v2_seg_22","object_type":"heat_network","variant_id":"2","start_node_id":"v2_tie_1","end_node_id":"v2_node_1","flow_tph":27.82,"diameter":125,"length":1.92,"laying_method":"special","depth_start":null,"depth_end":null,"cost":196316}},{"type":"Feature","geometry":{"type":"LineString","coordinates":[[37.63853782,55.69775155],[37.63849311,55.69776064]]},"properties":{"id":"v2_seg_23","object_type":"heat_network","variant_id":"2","start_node_id":"v2_tie_5","end_node_id":"v2_node_5","flow_tph":26.09,"diameter":125,"length":2.99,"laying_method":"special","depth_start":null,"depth_end":null,"cost":305134}},{"type":"Feature","geometry":{"type":"LineString","coordinates":[[37.63380452,55.69753814],[37.6337814,55.69756787],[37.6329432,55.69773832],[37.63294318,55.69773832]]},"properties":{"id":"v2_seg_24","object_type":"heat_network","variant_id":"2","start_node_id":"v2_ch_3","end_node_id":"v2_ch_6","flow_tph":71.89,"diameter":200,"length":59.62,"laying_method":"base","depth_start":null,"depth_end":null,"cost":7170339}},{"type":"Feature","geometry":{"type":"LineString","coordinates":[[37.63988649,55.69974552],[37.63987153,55.69974857],[37.63628213,55.70047867],[37.63615998,55.70044622],[37.63606295,55.70029406],[37.63612566,55.70022085]]},"properties":{"id":"v2_seg_25","object_type":"heat_network","variant_id":"2","start_node_id":"v2_tie_6","end_node_id":"v2_ch_4","flow_tph":158.85,"diameter":250,"length":276.34,"laying_method":"base","depth_start":null,"depth_end":null,"cost":37394836}},{"type":"Feature","geometry":{"type":"LineString","coordinates":[[37.63247294,55.70023727],[37.63236792,55.70028377],[37.63220263,55.70031442]]},"properties":{"id":"v2_seg_26","object_type":"heat_network","variant_id":"2","start_node_id":"v2_ch_9","end_node_id":8,"flow_tph":18.03,"diameter":100,"length":19.32,"laying_method":"base","depth_start":null,"depth_end":null,"cost":1734163}},{"type":"Feature","geometry":{"type":"LineString","coordinates":[[37.63380452,55.69753814],[37.63379556,55.69753996],[37.63375244,55.69747233]]},"properties":{"id":"v2_seg_27","object_type":"heat_network","variant_id":"2","start_node_id":"v2_ch_3","end_node_id":14,"flow_tph":19.73,"diameter":100,"length":8.6,"laying_method":"base","depth_start":null,"depth_end":null,"cost":771738}},{"type":"Feature","geometry":{"type":"LineString","coordinates":[[37.63380452,55.69753814],[37.63384177,55.69762962],[37.63390106,55.69772261]]},"properties":{"id":"v2_seg_28","object_type":"heat_network","variant_id":"2","start_node_id":"v2_ch_3","end_node_id":13,"flow_tph":19.77,"diameter":100,"length":21.45,"laying_method":"base","depth_start":null,"depth_end":null,"cost":1924941}},{"type":"Feature","geometry":{"type":"LineString","coordinates":[[37.64017055,55.69946785],[37.64135361,55.6992272],[37.64146853,55.69908923],[37.64102644,55.69839609],[37.64094454,55.69837266],[37.64076447,55.69840739]]},"properties":{"id":"v2_seg_29","object_type":"heat_network","variant_id":"2","start_node_id":"v2_node_2","end_node_id":16,"flow_tph":76.27,"diameter":200,"length":195.74,"laying_method":"base","depth_start":null,"depth_end":null,"cost":23542974}},{"type":"Feature","geometry":{"type":"LineString","coordinates":[[37.63247294,55.70023727],[37.63252946,55.70032593],[37.63256619,55.70033517],[37.6328466,55.70027576]]},"properties":{"id":"v2_seg_30","object_type":"heat_network","variant_id":"2","start_node_id":"v2_ch_9","end_node_id":3,"flow_tph":29.42,"diameter":125,"length":31.84,"laying_method":"base","depth_start":null,"depth_end":null,"cost":3097210}},{"type":"Feature","geometry":{"type":"LineString","coordinates":[[37.63247294,55.70023727],[37.63206344,55.70013145],[37.63201223,55.70004826]]},"properties":{"id":"v2_seg_31","object_type":"heat_network","variant_id":"2","start_node_id":"v2_ch_9","end_node_id":6,"flow_tph":15.99,"diameter":100,"length":38.11,"laying_method":"base","depth_start":null,"depth_end":null,"cost":3420177}},{"type":"Feature","geometry":{"type":"Point","coordinates":[37.64012619,55.69947688]},"properties":{"id":"v2_tie_2","object_type":"heat_chamber","variant_id":"2","diameter":200,"cost":3000000}},{"type":"Feature","geometry":{"type":"Point","coordinates":[37.63455798,55.69738518]},"properties":{"id":"v2_ch_2","object_type":"heat_chamber","variant_id":"2","diameter":200,"cost":3000000}},{"type":"Feature","geometry":{"type":"Point","coordinates":[37.63304885,55.69970467]},"properties":{"id":"v2_ch_8","object_type":"heat_chamber","variant_id":"2","diameter":200,"cost":3000000}},{"type":"Feature","geometry":{"type":"Point","coordinates":[37.63551815,55.69961]},"properties":{"id":"v2_ch_5","object_type":"heat_chamber","variant_id":"2","diameter":200,"cost":3000000}},{"type":"Feature","geometry":{"type":"Point","coordinates":[37.6380124,55.69702296]},"properties":{"id":"v2_tie_3","object_type":"heat_chamber","variant_id":"2","diameter":100,"cost":3000000}},{"type":"Feature","geometry":{"type":"Point","coordinates":[37.6345144,55.69962361]},"properties":{"id":"v2_ch_7","object_type":"heat_chamber","variant_id":"2","diameter":200,"cost":3000000}},{"type":"Feature","geometry":{"type":"Point","coordinates":[37.63585096,55.69717972]},"properties":{"id":"v2_ch_1","object_type":"heat_chamber","variant_id":"2","diameter":250,"cost":5000000}},{"type":"Feature","geometry":{"type":"Point","coordinates":[37.63294318,55.69773832]},"properties":{"id":"v2_ch_6","object_type":"heat_chamber","variant_id":"2","diameter":200,"cost":3000000}},{"type":"Feature","geometry":{"type":"Point","coordinates":[37.63988649,55.69974552]},"properties":{"id":"v2_tie_6","object_type":"heat_chamber","variant_id":"2","diameter":250,"cost":5000000}},{"type":"Feature","geometry":{"type":"Point","coordinates":[37.63853782,55.69775155]},"properties":{"id":"v2_tie_5","object_type":"heat_chamber","variant_id":"2","diameter":125,"cost":3000000}},{"type":"Feature","geometry":{"type":"Point","coordinates":[37.63380452,55.69753814]},"properties":{"id":"v2_ch_3","object_type":"heat_chamber","variant_id":"2","diameter":200,"cost":3000000}},{"type":"Feature","geometry":{"type":"Point","coordinates":[37.63855151,55.6977727]},"properties":{"id":"v2_tie_1","object_type":"heat_chamber","variant_id":"2","diameter":125,"cost":3000000}},{"type":"Feature","geometry":{"type":"Point","coordinates":[37.63612566,55.70022085]},"properties":{"id":"v2_ch_4","object_type":"heat_chamber","variant_id":"2","diameter":250,"cost":5000000}},{"type":"Feature","geometry":{"type":"Point","coordinates":[37.63247294,55.70023727]},"properties":{"id":"v2_ch_9","object_type":"heat_chamber","variant_id":"2","diameter":150,"cost":3000000}},{"type":"Feature","geometry":{"type":"Point","coordinates":[37.63805705,55.69701388]},"properties":{"id":"v2_node_3","object_type":"technical_node","variant_id":"2"}},{"type":"Feature","geometry":{"type":"Point","coordinates":[37.63843077,55.69764214]},"properties":{"id":"v2_node_4","object_type":"technical_node","variant_id":"2"}},{"type":"Feature","geometry":{"type":"Point","coordinates":[37.63852286,55.69777873]},"properties":{"id":"v2_node_1","object_type":"technical_node","variant_id":"2"}},{"type":"Feature","geometry":{"type":"Point","coordinates":[37.63849311,55.69776064]},"properties":{"id":"v2_node_5","object_type":"technical_node","variant_id":"2"}},{"type":"Feature","geometry":{"type":"Point","coordinates":[37.64017055,55.69946785]},"properties":{"id":"v2_node_2","object_type":"technical_node","variant_id":"2"}},{"type":"Feature","geometry":null,"properties":{"id":"summary_2","object_type":"variant_summary","variant_id":"2","rank":2,"variant_name":"Кратчайший: спрямление, свои врезки","variant_description":"Кратчайшая трассировка со спрямлением, ближние к существующей сети точки получают собственные врезки","routing_method":"grid","routing_millis":7297,"engineering_millis":1,"compute_millis":7299,"construction_cost":290329074,"chamber_construction_cost":48000000,"existing_chamber_tie_in_count":1,"existing_chamber_tie_in_cost":5000000,"unconnected_penalty":0,"calculated_cost":290329074,"new_network_length":2115.66,"score":14.4762,"unconnected_oks_ids":[]}},{"type":"Feature","geometry":{"type":"LineString","coordinates":[[37.6360029,55.69714792],[37.63461827,55.69742931],[37.63454206,55.69740854],[37.6345337,55.69739456]]},"properties":{"id":"v3_seg_1","object_type":"heat_network","variant_id":"3","start_node_id":"v3_ch_1","end_node_id":"v3_ch_2","flow_tph":105.92,"diameter":200,"length":99.46,"laying_method":"base","depth_start":null,"depth_end":null,"cost":11962829}},{"type":"Feature","geometry":{"type":"LineString","coordinates":[[37.6345337,55.69739456],[37.63452271,55.69737621],[37.63444627,55.69725239]]},"properties":{"id":"v3_seg_2","object_type":"heat_network","variant_id":"3","start_node_id":"v3_ch_2","end_node_id":9,"flow_tph":34.53,"diameter":125,"length":16.75,"laying_method":"base","depth_start":null,"depth_end":null,"cost":1629487}},{"type":"Feature","geometry":{"type":"LineString","coordinates":[[37.6345337,55.69739456],[37.63398364,55.69750633]]},"properties":{"id":"v3_seg_3","object_type":"heat_network","variant_id":"3","start_node_id":"v3_ch_2","end_node_id":"v3_ch_6","flow_tph":71.39,"diameter":200,"length":36.75,"laying_method":"base","depth_start":null,"depth_end":null,"cost":4419680}},{"type":"Feature","geometry":{"type":"LineString","coordinates":[[37.638408,55.69755358],[37.63839305,55.69755663],[37.63719681,55.69779992],[37.63669014,55.69700532],[37.63600164,55.69714535],[37.6360029,55.69714792]]},"properties":{"id":"v3_seg_4","object_type":"heat_network","variant_id":"3","start_node_id":"v3_tie_4","end_node_id":"v3_ch_1","flow_tph":139.06,"diameter":200,"length":221.22,"laying_method":"base","depth_start":null,"depth_end":null,"cost":26606988}},{"type":"Feature","geometry":{"type":"LineString","coordinates":[[37.6360029,55.69714792],[37.63600971,55.69716179],[37.63609324,55.69729657]]},"properties":{"id":"v3_seg_5","object_type":"heat_network","variant_id":"3","start_node_id":"v3_ch_1","end_node_id":10,"flow_tph":33.14,"diameter":125,"length":17.5,"laying_method":"base","depth_start":null,"depth_end":null,"cost":1701890}},{"type":"Feature","geometry":{"type":"LineString","coordinates":[[37.63380711,55.6975422],[37.63380549,55.69754253],[37.63379556,55.69753996],[37.63375244,55.69747233]]},"properties":{"id":"v3_seg_6","object_type":"heat_network","variant_id":"3","start_node_id":"v3_ch_3","end_node_id":14,"flow_tph":19.73,"diameter":100,"length":8.8,"laying_method":"base","depth_start":null,"depth_end":null,"cost":789387}},{"type":"Feature","geometry":{"type":"LineString","coordinates":[[37.63398364,55.69750633],[37.63342764,55.69663425],[37.63198858,55.69692688],[37.63197114,55.69694814],[37.63198146,55.69696375],[37.63203444,55.69704569]]},"properties":{"id":"v3_seg_7","object_type":"heat_network","variant_id":"3","start_node_id":"v3_ch_6","end_node_id":15,"flow_tph":31.89,"diameter":125,"length":213.48,"laying_method":"base","depth_start":null,"depth_end":null,"cost":20766447}},{"type":"Feature","geometry":{"type":"LineString","coordinates":[[37.63448985,55.69962498],[37.63316305,55.69989448],[37.63315875,55.69988774]]},"properties":{"id":"v3_seg_8","object_type":"heat_network","variant_id":"3","start_node_id":"v3_ch_8","end_node_id":"v3_ch_10","flow_tph":38.1,"diameter":125,"length":89.43,"laying_method":"base","depth_start":null,"depth_end":null,"cost":8698902}},{"type":"Feature","geometry":{"type":"LineString","coordinates":[[37.63315875,55.69988774],[37.63299058,55.69962398],[37.63299494,55.69961769],[37.6332045,55.69957508]]},"properties":{"id":"v3_seg_9","object_type":"heat_network","variant_id":"3","start_node_id":"v3_ch_10","end_node_id":11,"flow_tph":4.08,"diameter":65,"length":45.95,"laying_method":"base","depth_start":null,"depth_end":null,"cost":3613424}},{"type":"Feature","geometry":{"type":"LineString","coordinates":[[37.63315875,55.69988774],[37.63317922,55.69992177],[37.63225158,55.70010322]]},"properties":{"id":"v3_seg_10","object_type":"heat_network","variant_id":"3","start_node_id":"v3_ch_10","end_node_id":"v3_ch_11","flow_tph":34.02,"diameter":125,"length":65.71,"laying_method":"base","depth_start":null,"depth_end":null,"cost":6391620}},{"type":"Feature","geometry":{"type":"LineString","coordinates":[[37.63805705,55.69701387],[37.63945613,55.6967292],[37.63946749,55.69674402],[37.63953815,55.69685183]]},"properties":{"id":"v3_seg_11","object_type":"heat_network","variant_id":"3","start_node_id":"v3_node_3","end_node_id":17,"flow_tph":20.63,"diameter":100,"length":108.07,"laying_method":"base","depth_start":null,"depth_end":null,"cost":9699310}},{"type":"Feature","geometry":{"type":"LineString","coordinates":[[37.6380124,55.69702296],[37.63805705,55.69701387]]},"properties":{"id":"v3_seg_12","object_type":"heat_network","variant_id":"3","start_node_id":"v3_tie_3","end_node_id":"v3_node_3","flow_tph":20.63,"diameter":100,"length":2.98,"laying_method":"special","depth_start":null,"depth_end":null,"cost":281144}},{"type":"Feature","geometry":{"type":"LineString","coordinates":[[37.63852286,55.69777873],[37.63820765,55.69784501],[37.6382803,55.69795679]]},"properties":{"id":"v3_seg_13","object_type":"heat_network","variant_id":"3","start_node_id":"v3_node_1","end_node_id":7,"flow_tph":27.82,"diameter":125,"length":34.39,"laying_method":"base","depth_start":null,"depth_end":null,"cost":3345764}},{"type":"Feature","geometry":{"type":"LineString","coordinates":[[37.63380711,55.6975422],[37.63379179,55.69754468],[37.63378186,55.69755563],[37.63383035,55.69763169],[37.63384177,55.69762962],[37.63390106,55.69772261]]},"properties":{"id":"v3_seg_14","object_type":"heat_network","variant_id":"3","start_node_id":"v3_ch_3","end_node_id":13,"flow_tph":19.77,"diameter":100,"length":23.12,"laying_method":"base","depth_start":null,"depth_end":null,"cost":2075265}},{"type":"Feature","geometry":{"type":"LineString","coordinates":[[37.63398364,55.69750633],[37.63380711,55.6975422]]},"properties":{"id":"v3_seg_15","object_type":"heat_network","variant_id":"3","start_node_id":"v3_ch_6","end_node_id":"v3_ch_3","flow_tph":39.5,"diameter":125,"length":11.79,"laying_method":"base","depth_start":null,"depth_end":null,"cost":1147125}},{"type":"Feature","geometry":{"type":"LineString","coordinates":[[37.63988649,55.69974552],[37.63987153,55.69974857],[37.63619232,55.70049694],[37.636192,55.70049643]]},"properties":{"id":"v3_seg_16","object_type":"heat_network","variant_id":"3","start_node_id":"v3_tie_6","end_node_id":"v3_ch_9","flow_tph":158.85,"diameter":250,"length":246.86,"laying_method":"base","depth_start":null,"depth_end":null,"cost":33405879}},{"type":"Feature","geometry":{"type":"LineString","coordinates":[[37.636192,55.70049643],[37.63601983,55.70022643]]},"properties":{"id":"v3_seg_17","object_type":"heat_network","variant_id":"3","start_node_id":"v3_ch_9","end_node_id":"v3_ch_4","flow_tph":129.43,"diameter":200,"length":31.94,"laying_method":"base","depth_start":null,"depth_end":null,"cost":3841678}},{"type":"Feature","geometry":{"type":"LineString","coordinates":[[37.636192,55.70049643],[37.6333694,55.70107041],[37.63319692,55.7007999],[37.63318076,55.70079987],[37.6328466,55.70027576]]},"properties":{"id":"v3_seg_18","object_type":"heat_network","variant_id":"3","start_node_id":"v3_ch_9","end_node_id":3,"flow_tph":29.42,"diameter":125,"length":283.58,"laying_method":"base","depth_start":null,"depth_end":null,"cost":27585302}},{"type":"Feature","geometry":{"type":"LineString","coordinates":[[37.64017062,55.69946784],[37.64153322,55.69919067],[37.64100488,55.69836228],[37.64094454,55.69837266],[37.64076447,55.69840739]]},"properties":{"id":"v3_seg_19","object_type":"heat_network","variant_id":"3","start_node_id":"v3_node_2","end_node_id":16,"flow_tph":76.27,"diameter":200,"length":204.96,"laying_method":"base","depth_start":null,"depth_end":null,"cost":24651723}},{"type":"Feature","geometry":{"type":"LineString","coordinates":[[37.64012619,55.69947688],[37.64017062,55.69946784]]},"properties":{"id":"v3_seg_20","object_type":"heat_network","variant_id":"3","start_node_id":"v3_tie_2","end_node_id":"v3_node_2","flow_tph":76.27,"diameter":200,"length":2.97,"laying_method":"special","depth_start":null,"depth_end":null,"cost":374893}},{"type":"Feature","geometry":{"type":"LineString","coordinates":[[37.63855151,55.6977727],[37.63852286,55.69777873]]},"properties":{"id":"v3_seg_21","object_type":"heat_network","variant_id":"3","start_node_id":"v3_tie_1","end_node_id":"v3_node_1","flow_tph":27.82,"diameter":125,"length":1.92,"laying_method":"special","depth_start":null,"depth_end":null,"cost":196316}},{"type":"Feature","geometry":{"type":"LineString","coordinates":[[37.6384931,55.69776064],[37.63527324,55.69841551]]},"properties":{"id":"v3_seg_22","object_type":"heat_network","variant_id":"3","start_node_id":"v3_node_4","end_node_id":"v3_ch_7","flow_tph":66.09,"diameter":200,"length":215.12,"laying_method":"base","depth_start":null,"depth_end":null,"cost":25873684}},{"type":"Feature","geometry":{"type":"LineString","coordinates":[[37.63853782,55.69775155],[37.6384931,55.69776064]]},"properties":{"id":"v3_seg_23","object_type":"heat_network","variant_id":"3","start_node_id":"v3_tie_5","end_node_id":"v3_node_4","flow_tph":66.09,"diameter":200,"length":2.99,"laying_method":"special","depth_start":null,"depth_end":null,"cost":377325}},{"type":"Feature","geometry":{"type":"LineString","coordinates":[[37.63225158,55.70010322],[37.63208252,55.70013628],[37.63206232,55.70013073],[37.63201223,55.70004826]]},"properties":{"id":"v3_seg_24","object_type":"heat_network","variant_id":"3","start_node_id":"v3_ch_11","end_node_id":6,"flow_tph":15.99,"diameter":100,"length":22.36,"laying_method":"base","depth_start":null,"depth_end":null,"cost":2006890}},{"type":"Feature","geometry":{"type":"LineString","coordinates":[[37.63527324,55.69841551],[37.63531281,55.6984644],[37.63541706,55.69861473]]},"properties":{"id":"v3_seg_25","object_type":"heat_network","variant_id":"3","start_node_id":"v3_ch_7","end_node_id":5,"flow_tph":26.09,"diameter":125,"length":23.95,"laying_method":"base","depth_start":null,"depth_end":null,"cost":2329950}},{"type":"Feature","geometry":{"type":"LineString","coordinates":[[37.63527324,55.69841551],[37.63352678,55.6987688],[37.63341899,55.69859973],[37.63327167,55.69862792],[37.63313932,55.69865307]]},"properties":{"id":"v3_seg_26","object_type":"heat_network","variant_id":"3","start_node_id":"v3_ch_7","end_node_id":12,"flow_tph":40.0,"diameter":125,"length":155.16,"laying_method":"base","depth_start":null,"depth_end":null,"cost":15093504}},{"type":"Feature","geometry":{"type":"LineString","coordinates":[[37.63448985,55.69962498],[37.63448463,55.69961535],[37.6344054,55.69948106]]},"properties":{"id":"v3_seg_27","object_type":"heat_network","variant_id":"3","start_node_id":"v3_ch_8","end_node_id":1,"flow_tph":24.87,"diameter":125,"length":16.87,"laying_method":"base","depth_start":null,"depth_end":null,"cost":1641470}},{"type":"Feature","geometry":{"type":"LineString","coordinates":[[37.63601983,55.70022643],[37.63564431,55.69964008]]},"properties":{"id":"v3_seg_28","object_type":"heat_network","variant_id":"3","start_node_id":"v3_ch_4","end_node_id":"v3_ch_5","flow_tph":81.73,"diameter":200,"length":69.4,"laying_method":"base","depth_start":null,"depth_end":null,"cost":8346991}},{"type":"Feature","geometry":{"type":"LineString","coordinates":[[37.63564431,55.69964008],[37.63553859,55.69947501],[37.63457881,55.69967019],[37.63450269,55.69964867],[37.63448985,55.69962498]]},"properties":{"id":"v3_seg_29","object_type":"heat_network","variant_id":"3","start_node_id":"v3_ch_5","end_node_id":"v3_ch_8","flow_tph":62.97,"diameter":150,"length":91.77,"laying_method":"base","depth_start":null,"depth_end":null,"cost":9682064}},{"type":"Feature","geometry":{"type":"LineString","coordinates":[[37.63564431,55.69964008],[37.63543422,55.69968208],[37.63458293,55.69985446]]},"properties":{"id":"v3_seg_30","object_type":"heat_network","variant_id":"3","start_node_id":"v3_ch_5","end_node_id":2,"flow_tph":18.76,"diameter":100,"length":70.85,"laying_method":"base","depth_start":null,"depth_end":null,"cost":6358928}},{"type":"Feature","geometry":{"type":"LineString","coordinates":[[37.63601983,55.70022643],[37.63613958,55.70020208],[37.63614235,55.7002039],[37.63638185,55.7001552]]},"properties":{"id":"v3_seg_31","object_type":"heat_network","variant_id":"3","start_node_id":"v3_ch_4","end_node_id":4,"flow_tph":47.7,"diameter":150,"length":24.27,"laying_method":"base","depth_start":null,"depth_end":null,"cost":2560411}},{"type":"Feature","geometry":{"type":"LineString","coordinates":[[37.63225158,55.70010322],[37.63235704,55.70026688],[37.63233769,55.70028937],[37.63220263,55.70031442]]},"properties":{"id":"v3_seg_32","object_type":"heat_network","variant_id":"3","start_node_id":"v3_ch_11","end_node_id":8,"flow_tph":18.03,"diameter":100,"length":31.1,"laying_method":"base","depth_start":null,"depth_end":null,"cost":2791408}},{"type":"Feature","geometry":{"type":"Point","coordinates":[37.6345337,55.69739456]},"properties":{"id":"v3_ch_2","object_type":"heat_chamber","variant_id":"3","diameter":200,"cost":3000000}},{"type":"Feature","geometry":{"type":"Point","coordinates":[37.6360029,55.69714792]},"properties":{"id":"v3_ch_1","object_type":"heat_chamber","variant_id":"3","diameter":200,"cost":3000000}},{"type":"Feature","geometry":{"type":"Point","coordinates":[37.63315875,55.69988774]},"properties":{"id":"v3_ch_10","object_type":"heat_chamber","variant_id":"3","diameter":125,"cost":3000000}},{"type":"Feature","geometry":{"type":"Point","coordinates":[37.63380711,55.6975422]},"properties":{"id":"v3_ch_3","object_type":"heat_chamber","variant_id":"3","diameter":125,"cost":3000000}},{"type":"Feature","geometry":{"type":"Point","coordinates":[37.636192,55.70049643]},"properties":{"id":"v3_ch_9","object_type":"heat_chamber","variant_id":"3","diameter":250,"cost":5000000}},{"type":"Feature","geometry":{"type":"Point","coordinates":[37.63527324,55.69841551]},"properties":{"id":"v3_ch_7","object_type":"heat_chamber","variant_id":"3","diameter":200,"cost":3000000}},{"type":"Feature","geometry":{"type":"Point","coordinates":[37.63564431,55.69964008]},"properties":{"id":"v3_ch_5","object_type":"heat_chamber","variant_id":"3","diameter":200,"cost":3000000}},{"type":"Feature","geometry":{"type":"Point","coordinates":[37.63398364,55.69750633]},"properties":{"id":"v3_ch_6","object_type":"heat_chamber","variant_id":"3","diameter":200,"cost":3000000}},{"type":"Feature","geometry":{"type":"Point","coordinates":[37.63225158,55.70010322]},"properties":{"id":"v3_ch_11","object_type":"heat_chamber","variant_id":"3","diameter":125,"cost":3000000}},{"type":"Feature","geometry":{"type":"Point","coordinates":[37.638408,55.69755358]},"properties":{"id":"v3_tie_4","object_type":"heat_chamber","variant_id":"3","diameter":200,"cost":3000000}},{"type":"Feature","geometry":{"type":"Point","coordinates":[37.63988649,55.69974552]},"properties":{"id":"v3_tie_6","object_type":"heat_chamber","variant_id":"3","diameter":250,"cost":5000000}},{"type":"Feature","geometry":{"type":"Point","coordinates":[37.63853782,55.69775155]},"properties":{"id":"v3_tie_5","object_type":"heat_chamber","variant_id":"3","diameter":200,"cost":3000000}},{"type":"Feature","geometry":{"type":"Point","coordinates":[37.63448985,55.69962498]},"properties":{"id":"v3_ch_8","object_type":"heat_chamber","variant_id":"3","diameter":150,"cost":3000000}},{"type":"Feature","geometry":{"type":"Point","coordinates":[37.63855151,55.6977727]},"properties":{"id":"v3_tie_1","object_type":"heat_chamber","variant_id":"3","diameter":125,"cost":3000000}},{"type":"Feature","geometry":{"type":"Point","coordinates":[37.6380124,55.69702296]},"properties":{"id":"v3_tie_3","object_type":"heat_chamber","variant_id":"3","diameter":100,"cost":3000000}},{"type":"Feature","geometry":{"type":"Point","coordinates":[37.64012619,55.69947688]},"properties":{"id":"v3_tie_2","object_type":"heat_chamber","variant_id":"3","diameter":200,"cost":3000000}},{"type":"Feature","geometry":{"type":"Point","coordinates":[37.63601983,55.70022643]},"properties":{"id":"v3_ch_4","object_type":"heat_chamber","variant_id":"3","diameter":200,"cost":3000000}},{"type":"Feature","geometry":{"type":"Point","coordinates":[37.63805705,55.69701387]},"properties":{"id":"v3_node_3","object_type":"technical_node","variant_id":"3"}},{"type":"Feature","geometry":{"type":"Point","coordinates":[37.64017062,55.69946784]},"properties":{"id":"v3_node_2","object_type":"technical_node","variant_id":"3"}},{"type":"Feature","geometry":{"type":"Point","coordinates":[37.63852286,55.69777873]},"properties":{"id":"v3_node_1","object_type":"technical_node","variant_id":"3"}},{"type":"Feature","geometry":{"type":"Point","coordinates":[37.6384931,55.69776064]},"properties":{"id":"v3_node_4","object_type":"technical_node","variant_id":"3"}},{"type":"Feature","geometry":null,"properties":{"id":"summary_3","object_type":"variant_summary","variant_id":"3","rank":3,"variant_name":"Инженерный: вдоль застройки, свои врезки","variant_description":"Инженерная трассировка вдоль застройки: сетка развёрнута по преобладающему направлению существующей сети, повороты прямые (самокомпенсация), косые изломы исключены; подключение ближних точек собственными врезками, чтобы не перегружать существующую сеть","routing_method":"grid","routing_millis":13454,"engineering_millis":24,"compute_millis":13486,"construction_cost":325247678,"chamber_construction_cost":55000000,"existing_chamber_tie_in_count":0,"existing_chamber_tie_in_cost":0,"unconnected_penalty":0,"calculated_cost":325247678,"new_network_length":2491.49,"score":16.5814,"unconnected_oks_ids":[]}}]}