{"type":"FeatureCollection","name":"heatnet_result","crs":{"type":"name","properties":{"name":"urn:ogc:def:crs:OGC:1.3:CRS84"}},"features":[{"type":"Feature","geometry":{"type":"LineString","coordinates":[[37.6353388,55.69945074],[37.63414959,55.69969257],[37.63383839,55.6992045]]},"properties":{"id":"v1_seg_2_1","object_type":"heat_network","variant_id":"1","start_node_id":"v1_ch_1","end_node_id":"v1_dnode_10","flow_tph":213.44,"diameter":250,"length":137.19,"laying_method":"base","depth_start":3.0,"depth_end":3.0,"cost":18564501}},{"type":"Feature","geometry":{"type":"LineString","coordinates":[[37.63383839,55.6992045],[37.6338262,55.69918538],[37.63377191,55.69917095]]},"properties":{"id":"v1_seg_2_2","object_type":"heat_network","variant_id":"1","start_node_id":"v1_dnode_10","end_node_id":"v1_node_9","flow_tph":213.44,"diameter":250,"length":6.03,"laying_method":"base","depth_start":3.0,"depth_end":2.4,"cost":816416}},{"type":"Feature","geometry":{"type":"LineString","coordinates":[[37.63377191,55.69917095],[37.6337436,55.69916343]]},"properties":{"id":"v1_seg_1_3","object_type":"heat_network","variant_id":"1","start_node_id":"v1_node_9","end_node_id":"v1_dnode_11","flow_tph":213.44,"diameter":250,"length":1.97,"laying_method":"special","depth_start":2.4,"depth_end":2.2,"cost":332710}},{"type":"Feature","geometry":{"type":"LineString","coordinates":[[37.6337436,55.69916343],[37.63369048,55.69914931]]},"properties":{"id":"v1_seg_1_4","object_type":"heat_network","variant_id":"1","start_node_id":"v1_dnode_11","end_node_id":"v1_node_8","flow_tph":213.44,"diameter":250,"length":3.69,"laying_method":"special","depth_start":2.2,"depth_end":2.2,"cost":624168}},{"type":"Feature","geometry":{"type":"LineString","coordinates":[[37.63369048,55.69914931],[37.63368602,55.69914813]]},"properties":{"id":"v1_seg_29_5","object_type":"heat_network","variant_id":"1","start_node_id":"v1_node_8","end_node_id":"v1_dnode_12","flow_tph":213.44,"diameter":250,"length":0.31,"laying_method":"base","depth_start":2.2,"depth_end":2.2,"cost":41957}},{"type":"Feature","geometry":{"type":"LineString","coordinates":[[37.63368602,55.69914813],[37.63362262,55.69913128],[37.63360324,55.69910088]]},"properties":{"id":"v1_seg_29_6","object_type":"heat_network","variant_id":"1","start_node_id":"v1_dnode_12","end_node_id":"v1_dnode_13","flow_tph":213.44,"diameter":250,"length":8.0,"laying_method":"base","depth_start":2.2,"depth_end":3.0,"cost":1082584}},{"type":"Feature","geometry":{"type":"LineString","coordinates":[[37.63360324,55.69910088],[37.63357843,55.69906198]]},"properties":{"id":"v1_seg_29_7","object_type":"heat_network","variant_id":"1","start_node_id":"v1_dnode_13","end_node_id":"v1_ch_5","flow_tph":213.44,"diameter":250,"length":4.6,"laying_method":"base","depth_start":3.0,"depth_end":3.0,"cost":622827}},{"type":"Feature","geometry":{"type":"LineString","coordinates":[[37.63271174,55.70008312],[37.63271994,55.70009598],[37.63273342,55.70009824],[37.6328466,55.70027576]]},"properties":{"id":"v1_seg_3","object_type":"heat_network","variant_id":"1","start_node_id":"v1_ch_12","end_node_id":3,"flow_tph":29.42,"diameter":125,"length":23.4,"laying_method":"base","depth_start":3.0,"depth_end":3.0,"cost":2276694}},{"type":"Feature","geometry":{"type":"LineString","coordinates":[[37.63330126,55.69862724],[37.63329925,55.69862408],[37.63327167,55.69862792],[37.63313932,55.69865307]]},"properties":{"id":"v1_seg_4","object_type":"heat_network","variant_id":"1","start_node_id":"v1_ch_2","end_node_id":12,"flow_tph":40.0,"diameter":125,"length":10.94,"laying_method":"base","depth_start":3.0,"depth_end":3.0,"cost":1063801}},{"type":"Feature","geometry":{"type":"LineString","coordinates":[[37.63330126,55.69862724],[37.63280355,55.69784992],[37.63281677,55.69783402]]},"properties":{"id":"v1_seg_5","object_type":"heat_network","variant_id":"1","start_node_id":"v1_ch_2","end_node_id":"v1_ch_4","flow_tph":105.92,"diameter":200,"length":93.96,"laying_method":"base","depth_start":3.0,"depth_end":3.0,"cost":11300481}},{"type":"Feature","geometry":{"type":"LineString","coordinates":[[37.63357843,55.69906198],[37.63330126,55.69862724]]},"properties":{"id":"v1_seg_6","object_type":"heat_network","variant_id":"1","start_node_id":"v1_ch_5","end_node_id":"v1_ch_2","flow_tph":145.92,"diameter":200,"length":51.43,"laying_method":"base","depth_start":3.0,"depth_end":3.0,"cost":6185501}},{"type":"Feature","geometry":{"type":"LineString","coordinates":[[37.63271174,55.70008312],[37.63241285,55.7001439]]},"properties":{"id":"v1_seg_7","object_type":"heat_network","variant_id":"1","start_node_id":"v1_ch_12","end_node_id":"v1_ch_13","flow_tph":34.02,"diameter":125,"length":19.97,"laying_method":"base","depth_start":3.0,"depth_end":3.0,"cost":1942353}},{"type":"Feature","geometry":{"type":"LineString","coordinates":[[37.63253919,55.69981247],[37.63271174,55.70008312]]},"properties":{"id":"v1_seg_8","object_type":"heat_network","variant_id":"1","start_node_id":"v1_ch_14","end_node_id":"v1_ch_12","flow_tph":63.44,"diameter":150,"length":32.02,"laying_method":"base","depth_start":3.0,"depth_end":3.0,"cost":3378009}},{"type":"Feature","geometry":{"type":"LineString","coordinates":[[37.63990259,55.69977055],[37.63994723,55.69976147]]},"properties":{"id":"v1_seg_10","object_type":"heat_network","variant_id":"1","start_node_id":"v1_tie_1","end_node_id":"v1_node_1","flow_tph":76.27,"diameter":200,"length":2.98,"laying_method":"special","depth_start":3.0,"depth_end":3.0,"cost":376647}},{"type":"Feature","geometry":{"type":"LineString","coordinates":[[37.63994723,55.69976147],[37.6416734,55.69941044],[37.64100488,55.69836228],[37.64094454,55.69837266],[37.64076447,55.69840739]]},"properties":{"id":"v1_seg_9","object_type":"heat_network","variant_id":"1","start_node_id":"v1_node_1","end_node_id":16,"flow_tph":76.27,"diameter":200,"length":255.25,"laying_method":"base","depth_start":3.0,"depth_end":3.0,"cost":30699793}},{"type":"Feature","geometry":{"type":"LineString","coordinates":[[37.63913245,55.69802166],[37.639127,55.69801323],[37.63883291,55.69755853]]},"properties":{"id":"v1_seg_13","object_type":"heat_network","variant_id":"1","start_node_id":110,"end_node_id":"v1_ch_9","flow_tph":412.45,"diameter":300,"length":54.88,"laying_method":"base","depth_start":3.0,"depth_end":3.0,"cost":8232924}},{"type":"Feature","geometry":{"type":"LineString","coordinates":[[37.63883291,55.69755853],[37.63844789,55.69693014],[37.63946565,55.69672312],[37.63947643,55.69674003],[37.63946807,55.69674194],[37.63953815,55.69685183]]},"properties":{"id":"v1_seg_14","object_type":"heat_network","variant_id":"1","start_node_id":"v1_ch_9","end_node_id":17,"flow_tph":20.63,"diameter":100,"length":157.58,"laying_method":"base","depth_start":3.0,"depth_end":3.0,"cost":14142240}},{"type":"Feature","geometry":{"type":"LineString","coordinates":[[37.63241285,55.7001439],[37.63246692,55.7002287],[37.63242811,55.700273],[37.63236792,55.70028377],[37.63220263,55.70031442]]},"properties":{"id":"v1_seg_15","object_type":"heat_network","variant_id":"1","start_node_id":"v1_ch_13","end_node_id":8,"flow_tph":18.03,"diameter":100,"length":30.44,"laying_method":"base","depth_start":3.0,"depth_end":3.0,"cost":2731631}},{"type":"Feature","geometry":{"type":"LineString","coordinates":[[37.63523525,55.69830903],[37.6346825,55.69842144],[37.63525399,55.69931772]]},"properties":{"id":"v1_seg_16","object_type":"heat_network","variant_id":"1","start_node_id":"v1_ch_7","end_node_id":"v1_ch_8","flow_tph":304.77,"diameter":300,"length":142.96,"laying_method":"base","depth_start":3.0,"depth_end":3.0,"cost":21446767}},{"type":"Feature","geometry":{"type":"LineString","coordinates":[[37.63525399,55.69931772],[37.6353388,55.69945074]]},"properties":{"id":"v1_seg_17","object_type":"heat_network","variant_id":"1","start_node_id":"v1_ch_8","end_node_id":"v1_ch_1","flow_tph":279.9,"diameter":300,"length":15.74,"laying_method":"base","depth_start":3.0,"depth_end":3.0,"cost":2360732}},{"type":"Feature","geometry":{"type":"LineString","coordinates":[[37.63525399,55.69931772],[37.63520802,55.69932707],[37.63519873,55.69931974],[37.6344054,55.69948106]]},"properties":{"id":"v1_seg_18","object_type":"heat_network","variant_id":"1","start_node_id":"v1_ch_8","end_node_id":1,"flow_tph":24.87,"diameter":125,"length":57.07,"laying_method":"base","depth_start":3.0,"depth_end":3.0,"cost":5551938}},{"type":"Feature","geometry":{"type":"LineString","coordinates":[[37.63383727,55.69760151],[37.63385001,55.69763201],[37.63390106,55.69772261]]},"properties":{"id":"v1_seg_19","object_type":"heat_network","variant_id":"1","start_node_id":"v1_ch_10","end_node_id":13,"flow_tph":19.77,"diameter":100,"length":14.07,"laying_method":"base","depth_start":3.0,"depth_end":3.0,"cost":1262693}},{"type":"Feature","geometry":{"type":"LineString","coordinates":[[37.63281677,55.69783402],[37.63223298,55.69693448],[37.63215245,55.6969147],[37.63197653,55.69695659],[37.63203444,55.69704569]]},"properties":{"id":"v1_seg_20","object_type":"heat_network","variant_id":"1","start_node_id":"v1_ch_4","end_node_id":15,"flow_tph":31.89,"diameter":125,"length":134.72,"laying_method":"base","depth_start":3.0,"depth_end":3.0,"cost":13104783}},{"type":"Feature","geometry":{"type":"LineString","coordinates":[[37.63883291,55.69755853],[37.63883273,55.69755825],[37.63863125,55.69759924]]},"properties":{"id":"v1_seg_21_1","object_type":"heat_network","variant_id":"1","start_node_id":"v1_ch_9","end_node_id":"v1_dnode_14","flow_tph":391.82,"diameter":300,"length":13.49,"laying_method":"base","depth_start":3.0,"depth_end":3.0,"cost":2024449}},{"type":"Feature","geometry":{"type":"LineString","coordinates":[[37.63863125,55.69759924],[37.63850345,55.69762523]]},"properties":{"id":"v1_seg_21_2","object_type":"heat_network","variant_id":"1","start_node_id":"v1_dnode_14","end_node_id":"v1_node_7","flow_tph":391.82,"diameter":300,"length":8.54,"laying_method":"base","depth_start":3.0,"depth_end":2.15,"cost":1280965}},{"type":"Feature","geometry":{"type":"LineString","coordinates":[[37.63850345,55.69762523],[37.63848906,55.69762816]]},"properties":{"id":"v1_seg_12_3","object_type":"heat_network","variant_id":"1","start_node_id":"v1_node_7","end_node_id":"v1_dnode_15","flow_tph":391.82,"diameter":300,"length":0.96,"laying_method":"special","depth_start":2.15,"depth_end":2.05,"cost":151456}},{"type":"Feature","geometry":{"type":"LineString","coordinates":[[37.63848906,55.69762816],[37.63844358,55.69763741]]},"properties":{"id":"v1_seg_12_4","object_type":"heat_network","variant_id":"1","start_node_id":"v1_dnode_15","end_node_id":"v1_node_6","flow_tph":391.82,"diameter":300,"length":3.04,"laying_method":"special","depth_start":2.05,"depth_end":2.05,"cost":478637}},{"type":"Feature","geometry":{"type":"LineString","coordinates":[[37.63844358,55.69763741],[37.63842919,55.69764034]]},"properties":{"id":"v1_seg_11_5","object_type":"heat_network","variant_id":"1","start_node_id":"v1_node_6","end_node_id":"v1_dnode_16","flow_tph":391.82,"diameter":300,"length":0.96,"laying_method":"base","depth_start":2.05,"depth_end":2.05,"cost":144244}},{"type":"Feature","geometry":{"type":"LineString","coordinates":[[37.63842919,55.69764034],[37.638287,55.69766926]]},"properties":{"id":"v1_seg_11_6","object_type":"heat_network","variant_id":"1","start_node_id":"v1_dnode_16","end_node_id":"v1_dnode_17","flow_tph":391.82,"diameter":300,"length":9.5,"laying_method":"base","depth_start":2.05,"depth_end":3.0,"cost":1425209}},{"type":"Feature","geometry":{"type":"LineString","coordinates":[[37.638287,55.69766926],[37.6381282,55.69770156]]},"properties":{"id":"v1_seg_11_7","object_type":"heat_network","variant_id":"1","start_node_id":"v1_dnode_17","end_node_id":"v1_ch_6","flow_tph":391.82,"diameter":300,"length":10.61,"laying_method":"base","depth_start":3.0,"depth_end":3.0,"cost":1591690}},{"type":"Feature","geometry":{"type":"LineString","coordinates":[[37.6353388,55.69945074],[37.63547788,55.69966884]]},"properties":{"id":"v1_seg_22","object_type":"heat_network","variant_id":"1","start_node_id":"v1_ch_1","end_node_id":"v1_ch_11","flow_tph":66.46,"diameter":200,"length":25.8,"laying_method":"base","depth_start":3.0,"depth_end":3.0,"cost":3103272}},{"type":"Feature","geometry":{"type":"LineString","coordinates":[[37.63547788,55.69966884],[37.63568714,55.69999703]]},"properties":{"id":"v1_seg_23_1","object_type":"heat_network","variant_id":"1","start_node_id":"v1_ch_11","end_node_id":"v1_dnode_18","flow_tph":47.7,"diameter":150,"length":38.82,"laying_method":"base","depth_start":3.0,"depth_end":3.0,"cost":4096221}},{"type":"Feature","geometry":{"type":"LineString","coordinates":[[37.63568714,55.69999703],[37.63572816,55.70006136],[37.63574226,55.70006511]]},"properties":{"id":"v1_seg_23_2","object_type":"heat_network","variant_id":"1","start_node_id":"v1_dnode_18","end_node_id":"v1_node_3","flow_tph":47.7,"diameter":150,"length":8.59,"laying_method":"base","depth_start":3.0,"depth_end":2.14,"cost":906185}},{"type":"Feature","geometry":{"type":"LineString","coordinates":[[37.63574226,55.70006511],[37.63576977,55.70007241]]},"properties":{"id":"v1_seg_40_3","object_type":"heat_network","variant_id":"1","start_node_id":"v1_node_3","end_node_id":"v1_dnode_19","flow_tph":47.7,"diameter":150,"length":1.91,"laying_method":"special","depth_start":2.14,"depth_end":1.95,"cost":231884}},{"type":"Feature","geometry":{"type":"LineString","coordinates":[[37.63576977,55.70007241],[37.63582682,55.70008757]]},"properties":{"id":"v1_seg_40_4","object_type":"heat_network","variant_id":"1","start_node_id":"v1_dnode_19","end_node_id":"v1_node_2","flow_tph":47.7,"diameter":150,"length":3.96,"laying_method":"special","depth_start":1.95,"depth_end":1.95,"cost":480878}},{"type":"Feature","geometry":{"type":"LineString","coordinates":[[37.63582682,55.70008757],[37.63597851,55.70012788]]},"properties":{"id":"v1_seg_36_5","object_type":"heat_network","variant_id":"1","start_node_id":"v1_node_2","end_node_id":"v1_dnode_20","flow_tph":47.7,"diameter":150,"length":10.54,"laying_method":"base","depth_start":1.95,"depth_end":3.0,"cost":1111697}},{"type":"Feature","geometry":{"type":"LineString","coordinates":[[37.63597851,55.70012788],[37.63609462,55.70015872],[37.6361383,55.70020654],[37.63638185,55.7001552]]},"properties":{"id":"v1_seg_36_6","object_type":"heat_network","variant_id":"1","start_node_id":"v1_dnode_20","end_node_id":4,"flow_tph":47.7,"diameter":150,"length":30.39,"laying_method":"base","depth_start":3.0,"depth_end":3.0,"cost":3206781}},{"type":"Feature","geometry":{"type":"LineString","coordinates":[[37.63547788,55.69966884],[37.635433,55.69967978],[37.63458293,55.69985446]]},"properties":{"id":"v1_seg_24","object_type":"heat_network","variant_id":"1","start_node_id":"v1_ch_11","end_node_id":2,"flow_tph":18.76,"diameter":100,"length":59.93,"laying_method":"base","depth_start":3.0,"depth_end":3.0,"cost":5378766}},{"type":"Feature","geometry":{"type":"LineString","coordinates":[[37.63241285,55.7001439],[37.63210387,55.70019772],[37.63206344,55.70013145],[37.63201223,55.70004826]]},"properties":{"id":"v1_seg_25","object_type":"heat_network","variant_id":"1","start_node_id":"v1_ch_13","end_node_id":6,"flow_tph":15.99,"diameter":100,"length":37.93,"laying_method":"base","depth_start":3.0,"depth_end":3.0,"cost":3404031}},{"type":"Feature","geometry":{"type":"LineString","coordinates":[[37.63281677,55.69783402],[37.63284178,55.69780395],[37.63383727,55.69760151]]},"properties":{"id":"v1_seg_26","object_type":"heat_network","variant_id":"1","start_node_id":"v1_ch_4","end_node_id":"v1_ch_10","flow_tph":74.03,"diameter":200,"length":70.21,"laying_method":"base","depth_start":3.0,"depth_end":3.0,"cost":8444109}},{"type":"Feature","geometry":{"type":"LineString","coordinates":[[37.63383727,55.69760151],[37.63457804,55.69745087],[37.63453492,55.69738325],[37.63452711,55.69737919],[37.63444627,55.69725239]]},"properties":{"id":"v1_seg_27","object_type":"heat_network","variant_id":"1","start_node_id":"v1_ch_10","end_node_id":9,"flow_tph":34.53,"diameter":125,"length":73.16,"laying_method":"base","depth_start":3.0,"depth_end":3.0,"cost":7116419}},{"type":"Feature","geometry":{"type":"LineString","coordinates":[[37.63383727,55.69760151],[37.63379456,55.69753646],[37.63375244,55.69747233]]},"properties":{"id":"v1_seg_28","object_type":"heat_network","variant_id":"1","start_node_id":"v1_ch_10","end_node_id":14,"flow_tph":19.73,"diameter":100,"length":15.34,"laying_method":"base","depth_start":3.0,"depth_end":3.0,"cost":1376326}},{"type":"Feature","geometry":{"type":"LineString","coordinates":[[37.63357843,55.69906198],[37.63223488,55.69933518],[37.63253919,55.69981247]]},"properties":{"id":"v1_seg_30","object_type":"heat_network","variant_id":"1","start_node_id":"v1_ch_5","end_node_id":"v1_ch_14","flow_tph":67.52,"diameter":200,"length":146.22,"laying_method":"base","depth_start":3.0,"depth_end":3.0,"cost":17586808}},{"type":"Feature","geometry":{"type":"LineString","coordinates":[[37.63523525,55.69830903],[37.63532623,55.698462],[37.63541706,55.69861473]]},"properties":{"id":"v1_seg_31","object_type":"heat_network","variant_id":"1","start_node_id":"v1_ch_7","end_node_id":5,"flow_tph":26.09,"diameter":125,"length":35.89,"laying_method":"base","depth_start":3.0,"depth_end":3.0,"cost":3491524}},{"type":"Feature","geometry":{"type":"LineString","coordinates":[[37.63685741,55.69797912],[37.63523525,55.69830903]]},"properties":{"id":"v1_seg_33","object_type":"heat_network","variant_id":"1","start_node_id":"v1_ch_3","end_node_id":"v1_ch_7","flow_tph":330.86,"diameter":300,"length":108.38,"laying_method":"base","depth_start":3.0,"depth_end":3.0,"cost":16258958}},{"type":"Feature","geometry":{"type":"LineString","coordinates":[[37.63685741,55.69797912],[37.63631462,55.69712786],[37.63623373,55.69710704],[37.63600036,55.69715813],[37.63609324,55.69729657]]},"properties":{"id":"v1_seg_34","object_type":"heat_network","variant_id":"1","start_node_id":"v1_ch_3","end_node_id":10,"flow_tph":33.14,"diameter":125,"length":138.5,"laying_method":"base","depth_start":3.0,"depth_end":3.0,"cost":13472806}},{"type":"Feature","geometry":{"type":"LineString","coordinates":[[37.63253919,55.69981247],[37.63305016,55.69970857],[37.63299626,55.69962404],[37.63299494,55.69961769],[37.6332045,55.69957508]]},"properties":{"id":"v1_seg_35","object_type":"heat_network","variant_id":"1","start_node_id":"v1_ch_14","end_node_id":11,"flow_tph":4.08,"diameter":65,"length":58.85,"laying_method":"base","depth_start":3.0,"depth_end":3.0,"cost":4627302}},{"type":"Feature","geometry":{"type":"LineString","coordinates":[[37.6381282,55.69770156],[37.6382146,55.69783705],[37.63821023,55.6978469],[37.6382803,55.69795679]]},"properties":{"id":"v1_seg_37","object_type":"heat_network","variant_id":"1","start_node_id":"v1_ch_6","end_node_id":7,"flow_tph":27.82,"diameter":125,"length":30.16,"laying_method":"base","depth_start":3.0,"depth_end":3.0,"cost":2933688}},{"type":"Feature","geometry":{"type":"LineString","coordinates":[[37.6381282,55.69770156],[37.63761273,55.6978064]]},"properties":{"id":"v1_seg_39_1","object_type":"heat_network","variant_id":"1","start_node_id":"v1_ch_6","end_node_id":"v1_dnode_21","flow_tph":364.0,"diameter":300,"length":34.44,"laying_method":"base","depth_start":3.0,"depth_end":3.0,"cost":5166648}},{"type":"Feature","geometry":{"type":"LineString","coordinates":[[37.63761273,55.6978064],[37.63745573,55.69783833]]},"properties":{"id":"v1_seg_39_2","object_type":"heat_network","variant_id":"1","start_node_id":"v1_dnode_21","end_node_id":"v1_node_5","flow_tph":364.0,"diameter":300,"length":10.49,"laying_method":"base","depth_start":3.0,"depth_end":1.95,"cost":1573662}},{"type":"Feature","geometry":{"type":"LineString","coordinates":[[37.63745573,55.69783833],[37.63742563,55.69784445]]},"properties":{"id":"v1_seg_38_3","object_type":"heat_network","variant_id":"1","start_node_id":"v1_node_5","end_node_id":"v1_dnode_22","flow_tph":364.0,"diameter":300,"length":2.01,"laying_method":"special","depth_start":1.95,"depth_end":1.75,"cost":346855}},{"type":"Feature","geometry":{"type":"LineString","coordinates":[[37.63742563,55.69784445],[37.63736576,55.69785663]]},"properties":{"id":"v1_seg_38_4","object_type":"heat_network","variant_id":"1","start_node_id":"v1_dnode_22","end_node_id":"v1_dnode_23","flow_tph":364.0,"diameter":300,"length":4.0,"laying_method":"special","depth_start":1.75,"depth_end":1.75,"cost":690101}},{"type":"Feature","geometry":{"type":"LineString","coordinates":[[37.63736576,55.69785663],[37.63735095,55.69785964]]},"properties":{"id":"v1_seg_38_5","object_type":"heat_network","variant_id":"1","start_node_id":"v1_dnode_23","end_node_id":"v1_node_4","flow_tph":364.0,"diameter":300,"length":0.99,"laying_method":"special","depth_start":1.75,"depth_end":1.85,"cost":170721}},{"type":"Feature","geometry":{"type":"LineString","coordinates":[[37.63735095,55.69785964],[37.63730605,55.69786877],[37.63731683,55.69788568],[37.63721939,55.6979055]]},"properties":{"id":"v1_seg_32_6","object_type":"heat_network","variant_id":"1","start_node_id":"v1_node_4","end_node_id":"v1_dnode_24","flow_tph":364.0,"diameter":300,"length":11.51,"laying_method":"base","depth_start":1.85,"depth_end":3.0,"cost":1726822}},{"type":"Feature","geometry":{"type":"LineString","coordinates":[[37.63721939,55.6979055],[37.63685741,55.69797912]]},"properties":{"id":"v1_seg_32_7","object_type":"heat_network","variant_id":"1","start_node_id":"v1_dnode_24","end_node_id":"v1_ch_3","flow_tph":364.0,"diameter":300,"length":24.18,"laying_method":"base","depth_start":3.0,"depth_end":3.0,"cost":3628069}},{"type":"Feature","geometry":{"type":"Point","coordinates":[37.63330126,55.69862724]},"properties":{"id":"v1_ch_2","object_type":"heat_chamber","variant_id":"1","diameter":200,"cost":3000000}},{"type":"Feature","geometry":{"type":"Point","coordinates":[37.63271174,55.70008312]},"properties":{"id":"v1_ch_12","object_type":"heat_chamber","variant_id":"1","diameter":150,"cost":3000000}},{"type":"Feature","geometry":{"type":"Point","coordinates":[37.63525399,55.69931772]},"properties":{"id":"v1_ch_8","object_type":"heat_chamber","variant_id":"1","diameter":300,"cost":5000000}},{"type":"Feature","geometry":{"type":"Point","coordinates":[37.63547788,55.69966884]},"properties":{"id":"v1_ch_11","object_type":"heat_chamber","variant_id":"1","diameter":200,"cost":3000000}},{"type":"Feature","geometry":{"type":"Point","coordinates":[37.63383727,55.69760151]},"properties":{"id":"v1_ch_10","object_type":"heat_chamber","variant_id":"1","diameter":200,"cost":3000000}},{"type":"Feature","geometry":{"type":"Point","coordinates":[37.63357843,55.69906198]},"properties":{"id":"v1_ch_5","object_type":"heat_chamber","variant_id":"1","diameter":250,"cost":5000000}},{"type":"Feature","geometry":{"type":"Point","coordinates":[37.6353388,55.69945074]},"properties":{"id":"v1_ch_1","object_type":"heat_chamber","variant_id":"1","diameter":300,"cost":5000000}},{"type":"Feature","geometry":{"type":"Point","coordinates":[37.63685741,55.69797912]},"properties":{"id":"v1_ch_3","object_type":"heat_chamber","variant_id":"1","diameter":300,"cost":5000000}},{"type":"Feature","geometry":{"type":"Point","coordinates":[37.63241285,55.7001439]},"properties":{"id":"v1_ch_13","object_type":"heat_chamber","variant_id":"1","diameter":125,"cost":3000000}},{"type":"Feature","geometry":{"type":"Point","coordinates":[37.63253919,55.69981247]},"properties":{"id":"v1_ch_14","object_type":"heat_chamber","variant_id":"1","diameter":200,"cost":3000000}},{"type":"Feature","geometry":{"type":"Point","coordinates":[37.63281677,55.69783402]},"properties":{"id":"v1_ch_4","object_type":"heat_chamber","variant_id":"1","diameter":200,"cost":3000000}},{"type":"Feature","geometry":{"type":"Point","coordinates":[37.63990259,55.69977055]},"properties":{"id":"v1_tie_1","object_type":"heat_chamber","variant_id":"1","diameter":200,"cost":3000000}},{"type":"Feature","geometry":{"type":"Point","coordinates":[37.63883291,55.69755853]},"properties":{"id":"v1_ch_9","object_type":"heat_chamber","variant_id":"1","diameter":300,"cost":5000000}},{"type":"Feature","geometry":{"type":"Point","coordinates":[37.63523525,55.69830903]},"properties":{"id":"v1_ch_7","object_type":"heat_chamber","variant_id":"1","diameter":300,"cost":5000000}},{"type":"Feature","geometry":{"type":"Point","coordinates":[37.6381282,55.69770156]},"properties":{"id":"v1_ch_6","object_type":"heat_chamber","variant_id":"1","diameter":300,"cost":5000000}},{"type":"Feature","geometry":{"type":"Point","coordinates":[37.63377191,55.69917095]},"properties":{"id":"v1_node_9","object_type":"technical_node","variant_id":"1"}},{"type":"Feature","geometry":{"type":"Point","coordinates":[37.63994723,55.69976147]},"properties":{"id":"v1_node_1","object_type":"technical_node","variant_id":"1"}},{"type":"Feature","geometry":{"type":"Point","coordinates":[37.63844358,55.69763741]},"properties":{"id":"v1_node_6","object_type":"technical_node","variant_id":"1"}},{"type":"Feature","geometry":{"type":"Point","coordinates":[37.63850345,55.69762523]},"properties":{"id":"v1_node_7","object_type":"technical_node","variant_id":"1"}},{"type":"Feature","geometry":{"type":"Point","coordinates":[37.63369048,55.69914931]},"properties":{"id":"v1_node_8","object_type":"technical_node","variant_id":"1"}},{"type":"Feature","geometry":{"type":"Point","coordinates":[37.63745573,55.69783833]},"properties":{"id":"v1_node_5","object_type":"technical_node","variant_id":"1"}},{"type":"Feature","geometry":{"type":"Point","coordinates":[37.63574226,55.70006511]},"properties":{"id":"v1_node_3","object_type":"technical_node","variant_id":"1"}},{"type":"Feature","geometry":{"type":"Point","coordinates":[37.63735095,55.69785964]},"properties":{"id":"v1_node_4","object_type":"technical_node","variant_id":"1"}},{"type":"Feature","geometry":{"type":"Point","coordinates":[37.63582682,55.70008757]},"properties":{"id":"v1_node_2","object_type":"technical_node","variant_id":"1"}},{"type":"Feature","geometry":{"type":"Point","coordinates":[37.63383839,55.6992045]},"properties":{"id":"v1_dnode_10","object_type":"technical_node","variant_id":"1"}},{"type":"Feature","geometry":{"type":"Point","coordinates":[37.6337436,55.69916343]},"properties":{"id":"v1_dnode_11","object_type":"technical_node","variant_id":"1"}},{"type":"Feature","geometry":{"type":"Point","coordinates":[37.63368602,55.69914813]},"properties":{"id":"v1_dnode_12","object_type":"technical_node","variant_id":"1"}},{"type":"Feature","geometry":{"type":"Point","coordinates":[37.63360324,55.69910088]},"properties":{"id":"v1_dnode_13","object_type":"technical_node","variant_id":"1"}},{"type":"Feature","geometry":{"type":"Point","coordinates":[37.63863125,55.69759924]},"properties":{"id":"v1_dnode_14","object_type":"technical_node","variant_id":"1"}},{"type":"Feature","geometry":{"type":"Point","coordinates":[37.63848906,55.69762816]},"properties":{"id":"v1_dnode_15","object_type":"technical_node","variant_id":"1"}},{"type":"Feature","geometry":{"type":"Point","coordinates":[37.63842919,55.69764034]},"properties":{"id":"v1_dnode_16","object_type":"technical_node","variant_id":"1"}},{"type":"Feature","geometry":{"type":"Point","coordinates":[37.638287,55.69766926]},"properties":{"id":"v1_dnode_17","object_type":"technical_node","variant_id":"1"}},{"type":"Feature","geometry":{"type":"Point","coordinates":[37.63568714,55.69999703]},"properties":{"id":"v1_dnode_18","object_type":"technical_node","variant_id":"1"}},{"type":"Feature","geometry":{"type":"Point","coordinates":[37.63576977,55.70007241]},"properties":{"id":"v1_dnode_19","object_type":"technical_node","variant_id":"1"}},{"type":"Feature","geometry":{"type":"Point","coordinates":[37.63597851,55.70012788]},"properties":{"id":"v1_dnode_20","object_type":"technical_node","variant_id":"1"}},{"type":"Feature","geometry":{"type":"Point","coordinates":[37.63761273,55.6978064]},"properties":{"id":"v1_dnode_21","object_type":"technical_node","variant_id":"1"}},{"type":"Feature","geometry":{"type":"Point","coordinates":[37.63742563,55.69784445]},"properties":{"id":"v1_dnode_22","object_type":"technical_node","variant_id":"1"}},{"type":"Feature","geometry":{"type":"Point","coordinates":[37.63736576,55.69785663]},"properties":{"id":"v1_dnode_23","object_type":"technical_node","variant_id":"1"}},{"type":"Feature","geometry":{"type":"Point","coordinates":[37.63721939,55.6979055]},"properties":{"id":"v1_dnode_24","object_type":"technical_node","variant_id":"1"}},{"type":"Feature","geometry":null,"properties":{"id":"summary_1","object_type":"variant_summary","variant_id":"1","rank":1,"variant_name":"Инженерный: общий ствол, другие врезки","variant_description":"Инженерная трассировка с общим стволом: та же геометрия вдоль застройки, ствол строится от крупных потребителей, точки врезки отличаются от первого варианта","construction_cost":329769333,"chamber_construction_cost":59000000,"existing_chamber_tie_in_count":1,"existing_chamber_tie_in_cost":5000000,"unconnected_penalty":0,"calculated_cost":329769333,"new_network_length":2288.48,"score":16.099,"unconnected_oks_ids":[]}},{"type":"Feature","geometry":{"type":"LineString","coordinates":[[37.63820765,55.69784501],[37.6382803,55.69795679]]},"properties":{"id":"v2_seg_2","object_type":"heat_network","variant_id":"2","start_node_id":"v2_ch_1","end_node_id":7,"flow_tph":27.82,"diameter":125,"length":13.25,"laying_method":"base","depth_start":3.0,"depth_end":3.0,"cost":1289123}},{"type":"Feature","geometry":{"type":"LineString","coordinates":[[37.63820765,55.69784501],[37.63742686,55.69800158],[37.63738845,55.69804742],[37.63741002,55.69808123],[37.63727531,55.69810863]]},"properties":{"id":"v2_seg_3","object_type":"heat_network","variant_id":"2","start_node_id":"v2_ch_1","end_node_id":"v2_ch_4","flow_tph":364.0,"diameter":300,"length":70.73,"laying_method":"base","depth_start":3.0,"depth_end":3.0,"cost":10610455}},{"type":"Feature","geometry":{"type":"LineString","coordinates":[[37.6348923,55.69838413],[37.63477467,55.69819964],[37.63460371,55.69815421]]},"properties":{"id":"v2_seg_5_1","object_type":"heat_network","variant_id":"2","start_node_id":"v2_ch_7","end_node_id":"v2_dnode_8","flow_tph":213.44,"diameter":250,"length":33.7,"laying_method":"base","depth_start":3.0,"depth_end":3.0,"cost":4560597}},{"type":"Feature","geometry":{"type":"LineString","coordinates":[[37.63460371,55.69815421],[37.63452098,55.69813223]]},"properties":{"id":"v2_seg_5_2","object_type":"heat_network","variant_id":"2","start_node_id":"v2_dnode_8","end_node_id":"v2_node_7","flow_tph":213.44,"diameter":250,"length":5.75,"laying_method":"base","depth_start":3.0,"depth_end":2.43,"cost":777707}},{"type":"Feature","geometry":{"type":"LineString","coordinates":[[37.63452098,55.69813223],[37.63448855,55.69812361]]},"properties":{"id":"v2_seg_4_3","object_type":"heat_network","variant_id":"2","start_node_id":"v2_node_7","end_node_id":"v2_dnode_9","flow_tph":213.44,"diameter":250,"length":2.25,"laying_method":"special","depth_start":2.43,"depth_end":2.2,"cost":381097}},{"type":"Feature","geometry":{"type":"LineString","coordinates":[[37.63448855,55.69812361],[37.63443642,55.69810976]]},"properties":{"id":"v2_seg_4_4","object_type":"heat_network","variant_id":"2","start_node_id":"v2_dnode_9","end_node_id":"v2_node_6","flow_tph":213.44,"diameter":250,"length":3.62,"laying_method":"special","depth_start":2.2,"depth_end":2.2,"cost":612585}},{"type":"Feature","geometry":{"type":"LineString","coordinates":[[37.63443642,55.69810976],[37.63443097,55.69810831]]},"properties":{"id":"v2_seg_7_5","object_type":"heat_network","variant_id":"2","start_node_id":"v2_node_6","end_node_id":"v2_dnode_10","flow_tph":213.44,"diameter":250,"length":0.38,"laying_method":"base","depth_start":2.2,"depth_end":2.2,"cost":51224}},{"type":"Feature","geometry":{"type":"LineString","coordinates":[[37.63443097,55.69810831],[37.63440823,55.69810227],[37.63437363,55.69804799]]},"properties":{"id":"v2_seg_7_6","object_type":"heat_network","variant_id":"2","start_node_id":"v2_dnode_10","end_node_id":"v2_dnode_11","flow_tph":213.44,"diameter":250,"length":8.0,"laying_method":"base","depth_start":2.2,"depth_end":3.0,"cost":1082584}},{"type":"Feature","geometry":{"type":"LineString","coordinates":[[37.63437363,55.69804799],[37.63406626,55.6975659]]},"properties":{"id":"v2_seg_7_7","object_type":"heat_network","variant_id":"2","start_node_id":"v2_dnode_11","end_node_id":"v2_ch_5","flow_tph":213.44,"diameter":250,"length":57.03,"laying_method":"base","depth_start":3.0,"depth_end":3.0,"cost":7717590}},{"type":"Feature","geometry":{"type":"LineString","coordinates":[[37.63329923,55.69862273],[37.63327167,55.69862792],[37.63313932,55.69865307]]},"properties":{"id":"v2_seg_6","object_type":"heat_network","variant_id":"2","start_node_id":"v2_ch_11","end_node_id":12,"flow_tph":40.0,"diameter":125,"length":10.6,"laying_method":"base","depth_start":3.0,"depth_end":3.0,"cost":1031468}},{"type":"Feature","geometry":{"type":"LineString","coordinates":[[37.63256344,55.69980632],[37.63269927,55.70001937]]},"properties":{"id":"v2_seg_8","object_type":"heat_network","variant_id":"2","start_node_id":"v2_ch_12","end_node_id":"v2_ch_13","flow_tph":63.44,"diameter":150,"length":25.2,"laying_method":"base","depth_start":3.0,"depth_end":3.0,"cost":2659026}},{"type":"Feature","geometry":{"type":"LineString","coordinates":[[37.63269927,55.70001937],[37.63274419,55.70008983],[37.63273342,55.70009824],[37.6328466,55.70027576]]},"properties":{"id":"v2_seg_9","object_type":"heat_network","variant_id":"2","start_node_id":"v2_ch_13","end_node_id":3,"flow_tph":29.42,"diameter":125,"length":30.49,"laying_method":"base","depth_start":3.0,"depth_end":3.0,"cost":2965983}},{"type":"Feature","geometry":{"type":"LineString","coordinates":[[37.63269927,55.70001937],[37.63225211,55.7001042]]},"properties":{"id":"v2_seg_10","object_type":"heat_network","variant_id":"2","start_node_id":"v2_ch_13","end_node_id":"v2_ch_14","flow_tph":34.02,"diameter":125,"length":29.65,"laying_method":"base","depth_start":3.0,"depth_end":3.0,"cost":2884191}},{"type":"Feature","geometry":{"type":"LineString","coordinates":[[37.63702349,55.69795237],[37.63645066,55.69705403],[37.63600164,55.69714535],[37.63600971,55.69716179],[37.63609324,55.69729657]]},"properties":{"id":"v2_seg_11","object_type":"heat_network","variant_id":"2","start_node_id":"v2_ch_2","end_node_id":10,"flow_tph":33.14,"diameter":125,"length":154.07,"laying_method":"base","depth_start":3.0,"depth_end":3.0,"cost":14986751}},{"type":"Feature","geometry":{"type":"LineString","coordinates":[[37.63727531,55.69810863],[37.63848675,55.70002453],[37.63618161,55.70049334],[37.63600912,55.70022283],[37.63612887,55.70019848],[37.63614235,55.7002039],[37.63638185,55.7001552]]},"properties":{"id":"v2_seg_14","object_type":"heat_network","variant_id":"2","start_node_id":"v2_ch_4","end_node_id":4,"flow_tph":47.7,"diameter":150,"length":437.47,"laying_method":"base","depth_start":3.0,"depth_end":3.0,"cost":46156309}},{"type":"Feature","geometry":{"type":"LineString","coordinates":[[37.63382288,55.69761997],[37.63383035,55.69763169],[37.63384177,55.69762962],[37.63390106,55.69772261]]},"properties":{"id":"v2_seg_15","object_type":"heat_network","variant_id":"2","start_node_id":"v2_ch_10","end_node_id":13,"flow_tph":19.77,"diameter":100,"length":13.14,"laying_method":"base","depth_start":3.0,"depth_end":3.0,"cost":1179335}},{"type":"Feature","geometry":{"type":"LineString","coordinates":[[37.63384788,55.69760903],[37.63380549,55.69754253],[37.63379556,55.69753996],[37.63375244,55.69747233]]},"properties":{"id":"v2_seg_16","object_type":"heat_network","variant_id":"2","start_node_id":"v2_ch_6","end_node_id":14,"flow_tph":19.73,"diameter":100,"length":16.55,"laying_method":"base","depth_start":3.0,"depth_end":3.0,"cost":1485639}},{"type":"Feature","geometry":{"type":"LineString","coordinates":[[37.63384788,55.69760903],[37.63381957,55.69761479],[37.63382288,55.69761997]]},"properties":{"id":"v2_seg_17","object_type":"heat_network","variant_id":"2","start_node_id":"v2_ch_6","end_node_id":"v2_ch_10","flow_tph":127.29,"diameter":200,"length":2.5,"laying_method":"base","depth_start":3.0,"depth_end":3.0,"cost":301272}},{"type":"Feature","geometry":{"type":"LineString","coordinates":[[37.63402673,55.69757394],[37.6338486,55.69761016],[37.63384788,55.69760903]]},"properties":{"id":"v2_seg_18","object_type":"heat_network","variant_id":"2","start_node_id":"v2_ch_9","end_node_id":"v2_ch_6","flow_tph":147.02,"diameter":200,"length":12.03,"laying_method":"base","depth_start":3.0,"depth_end":3.0,"cost":1447452}},{"type":"Feature","geometry":{"type":"LineString","coordinates":[[37.63225211,55.7001042],[37.63206749,55.70013923],[37.63201223,55.70004826]]},"properties":{"id":"v2_seg_19","object_type":"heat_network","variant_id":"2","start_node_id":"v2_ch_14","end_node_id":6,"flow_tph":15.99,"diameter":100,"length":22.95,"laying_method":"base","depth_start":3.0,"depth_end":3.0,"cost":2059345}},{"type":"Feature","geometry":{"type":"LineString","coordinates":[[37.63225211,55.7001042],[37.63235703,55.70026688],[37.63233769,55.70028937],[37.63220263,55.70031442]]},"properties":{"id":"v2_seg_20","object_type":"heat_network","variant_id":"2","start_node_id":"v2_ch_14","end_node_id":8,"flow_tph":18.03,"diameter":100,"length":30.99,"laying_method":"base","depth_start":3.0,"depth_end":3.0,"cost":2781136}},{"type":"Feature","geometry":{"type":"LineString","coordinates":[[37.63855151,55.6977727],[37.63852286,55.69777873]]},"properties":{"id":"v2_seg_21","object_type":"heat_network","variant_id":"2","start_node_id":"v2_tie_1","end_node_id":"v2_node_1","flow_tph":391.82,"diameter":300,"length":1.92,"laying_method":"special","depth_start":3.0,"depth_end":3.0,"cost":302767}},{"type":"Feature","geometry":{"type":"LineString","coordinates":[[37.63852286,55.69777873],[37.63820765,55.69784501]]},"properties":{"id":"v2_seg_1","object_type":"heat_network","variant_id":"2","start_node_id":"v2_node_1","end_node_id":"v2_ch_1","flow_tph":391.82,"diameter":300,"length":21.14,"laying_method":"base","depth_start":3.0,"depth_end":3.0,"cost":3171846}},{"type":"Feature","geometry":{"type":"LineString","coordinates":[[37.63382288,55.69761997],[37.63288245,55.69781121],[37.6333681,55.69857295],[37.63333036,55.69861687],[37.63329923,55.69862273]]},"properties":{"id":"v2_seg_22","object_type":"heat_network","variant_id":"2","start_node_id":"v2_ch_10","end_node_id":"v2_ch_11","flow_tph":107.52,"diameter":200,"length":160.44,"laying_method":"base","depth_start":3.0,"depth_end":3.0,"cost":19296645}},{"type":"Feature","geometry":{"type":"LineString","coordinates":[[37.63406626,55.6975659],[37.6340633,55.69756126],[37.6345722,55.69745777],[37.63452271,55.69737621],[37.63444627,55.69725239]]},"properties":{"id":"v2_seg_23","object_type":"heat_network","variant_id":"2","start_node_id":"v2_ch_5","end_node_id":9,"flow_tph":34.53,"diameter":125,"length":58.74,"laying_method":"base","depth_start":3.0,"depth_end":3.0,"cost":5713879}},{"type":"Feature","geometry":{"type":"LineString","coordinates":[[37.63523523,55.69831606],[37.6353248,55.69845655],[37.63532004,55.69846257],[37.63541706,55.69861473]]},"properties":{"id":"v2_seg_24","object_type":"heat_network","variant_id":"2","start_node_id":"v2_ch_3","end_node_id":5,"flow_tph":26.09,"diameter":125,"length":35.35,"laying_method":"base","depth_start":3.0,"depth_end":3.0,"cost":3439055}},{"type":"Feature","geometry":{"type":"LineString","coordinates":[[37.63406626,55.6975659],[37.63402673,55.69757394]]},"properties":{"id":"v2_seg_25","object_type":"heat_network","variant_id":"2","start_node_id":"v2_ch_5","end_node_id":"v2_ch_9","flow_tph":178.91,"diameter":250,"length":2.64,"laying_method":"base","depth_start":3.0,"depth_end":3.0,"cost":357325}},{"type":"Feature","geometry":{"type":"LineString","coordinates":[[37.63402673,55.69757394],[37.63342764,55.69663425],[37.63198858,55.69692688],[37.63197114,55.69694814],[37.63198146,55.69696375],[37.63203444,55.69704569]]},"properties":{"id":"v2_seg_26","object_type":"heat_network","variant_id":"2","start_node_id":"v2_ch_9","end_node_id":15,"flow_tph":31.89,"diameter":125,"length":221.48,"laying_method":"base","depth_start":3.0,"depth_end":3.0,"cost":21544346}},{"type":"Feature","geometry":{"type":"LineString","coordinates":[[37.63256344,55.69980632],[37.63304448,55.69970851],[37.63299058,55.69962398],[37.63299494,55.69961769],[37.6332045,55.69957508]]},"properties":{"id":"v2_seg_28","object_type":"heat_network","variant_id":"2","start_node_id":"v2_ch_12","end_node_id":11,"flow_tph":4.08,"diameter":65,"length":56.89,"laying_method":"base","depth_start":3.0,"depth_end":3.0,"cost":4473168}},{"type":"Feature","geometry":{"type":"LineString","coordinates":[[37.63329923,55.69862273],[37.63336531,55.69872655],[37.63201816,55.69900047],[37.63253554,55.699812],[37.63256344,55.69980632]]},"properties":{"id":"v2_seg_29","object_type":"heat_network","variant_id":"2","start_node_id":"v2_ch_11","end_node_id":"v2_ch_12","flow_tph":67.52,"diameter":200,"length":200.14,"laying_method":"base","depth_start":3.0,"depth_end":3.0,"cost":24072066}},{"type":"Feature","geometry":{"type":"LineString","coordinates":[[37.64012619,55.69947688],[37.64017062,55.69946784]]},"properties":{"id":"v2_seg_31","object_type":"heat_network","variant_id":"2","start_node_id":"v2_tie_2","end_node_id":"v2_node_2","flow_tph":76.27,"diameter":200,"length":2.97,"laying_method":"special","depth_start":3.0,"depth_end":3.0,"cost":374893}},{"type":"Feature","geometry":{"type":"LineString","coordinates":[[37.64017062,55.69946784],[37.64153322,55.69919067],[37.64100488,55.69836228],[37.64094454,55.69837266],[37.64076447,55.69840739]]},"properties":{"id":"v2_seg_30","object_type":"heat_network","variant_id":"2","start_node_id":"v2_node_2","end_node_id":16,"flow_tph":76.27,"diameter":200,"length":204.96,"laying_method":"base","depth_start":3.0,"depth_end":3.0,"cost":24651723}},{"type":"Feature","geometry":{"type":"LineString","coordinates":[[37.63727531,55.69810863],[37.63724537,55.69811472]]},"properties":{"id":"v2_seg_32_1","object_type":"heat_network","variant_id":"2","start_node_id":"v2_ch_4","end_node_id":"v2_node_5","flow_tph":316.3,"diameter":300,"length":2.0,"laying_method":"base","depth_start":3.0,"depth_end":2.18,"cost":300044}},{"type":"Feature","geometry":{"type":"LineString","coordinates":[[37.63724537,55.69811472],[37.63722976,55.69811789]]},"properties":{"id":"v2_seg_13_2","object_type":"heat_network","variant_id":"2","start_node_id":"v2_node_5","end_node_id":"v2_dnode_12","flow_tph":316.3,"diameter":300,"length":1.04,"laying_method":"special","depth_start":2.18,"depth_end":1.75,"cost":179917}},{"type":"Feature","geometry":{"type":"LineString","coordinates":[[37.63722976,55.69811789],[37.63716989,55.69813007]]},"properties":{"id":"v2_seg_13_3","object_type":"heat_network","variant_id":"2","start_node_id":"v2_dnode_12","end_node_id":"v2_dnode_13","flow_tph":316.3,"diameter":300,"length":4.0,"laying_method":"special","depth_start":1.75,"depth_end":1.75,"cost":690101}},{"type":"Feature","geometry":{"type":"LineString","coordinates":[[37.63716989,55.69813007],[37.63715557,55.69813299]]},"properties":{"id":"v2_seg_13_4","object_type":"heat_network","variant_id":"2","start_node_id":"v2_dnode_13","end_node_id":"v2_node_4","flow_tph":316.3,"diameter":300,"length":0.96,"laying_method":"special","depth_start":1.75,"depth_end":1.85,"cost":165134}},{"type":"Feature","geometry":{"type":"LineString","coordinates":[[37.63715557,55.69813299],[37.6371406,55.69813603],[37.63708377,55.69804691]]},"properties":{"id":"v2_seg_12_5","object_type":"heat_network","variant_id":"2","start_node_id":"v2_node_4","end_node_id":"v2_dnode_14","flow_tph":316.3,"diameter":300,"length":11.54,"laying_method":"base","depth_start":1.85,"depth_end":3.0,"cost":1731680}},{"type":"Feature","geometry":{"type":"LineString","coordinates":[[37.63708377,55.69804691],[37.63702349,55.69795237]]},"properties":{"id":"v2_seg_12_6","object_type":"heat_network","variant_id":"2","start_node_id":"v2_dnode_14","end_node_id":"v2_ch_2","flow_tph":316.3,"diameter":300,"length":11.18,"laying_method":"base","depth_start":3.0,"depth_end":3.0,"cost":1677813}},{"type":"Feature","geometry":{"type":"LineString","coordinates":[[37.63532359,55.69945975],[37.63451659,55.69961744],[37.63447677,55.69960621],[37.6344054,55.69948106]]},"properties":{"id":"v2_seg_33","object_type":"heat_network","variant_id":"2","start_node_id":"v2_ch_8","end_node_id":1,"flow_tph":24.87,"diameter":125,"length":71.11,"laying_method":"base","depth_start":3.0,"depth_end":3.0,"cost":6916906}},{"type":"Feature","geometry":{"type":"LineString","coordinates":[[37.6380124,55.69702296],[37.63802728,55.69701993],[37.63805705,55.69701387]]},"properties":{"id":"v2_seg_34","object_type":"heat_network","variant_id":"2","start_node_id":"v2_tie_3","end_node_id":"v2_node_3","flow_tph":20.63,"diameter":100,"length":2.98,"laying_method":"special","depth_start":3.0,"depth_end":3.0,"cost":281144}},{"type":"Feature","geometry":{"type":"LineString","coordinates":[[37.63805705,55.69701387],[37.63945613,55.6967292],[37.63946749,55.69674402],[37.63953815,55.69685183]]},"properties":{"id":"v2_seg_27","object_type":"heat_network","variant_id":"2","start_node_id":"v2_node_3","end_node_id":17,"flow_tph":20.63,"diameter":100,"length":108.07,"laying_method":"base","depth_start":3.0,"depth_end":3.0,"cost":9699310}},{"type":"Feature","geometry":{"type":"LineString","coordinates":[[37.63532359,55.69945975],[37.63544823,55.69967959],[37.63458293,55.69985446]]},"properties":{"id":"v2_seg_35","object_type":"heat_network","variant_id":"2","start_node_id":"v2_ch_8","end_node_id":2,"flow_tph":18.76,"diameter":100,"length":83.46,"laying_method":"base","depth_start":3.0,"depth_end":3.0,"cost":7490357}},{"type":"Feature","geometry":{"type":"LineString","coordinates":[[37.63702349,55.69795237],[37.63523523,55.69831606]]},"properties":{"id":"v2_seg_36","object_type":"heat_network","variant_id":"2","start_node_id":"v2_ch_2","end_node_id":"v2_ch_3","flow_tph":283.16,"diameter":300,"length":119.47,"laying_method":"base","depth_start":3.0,"depth_end":3.0,"cost":17923740}},{"type":"Feature","geometry":{"type":"LineString","coordinates":[[37.63523523,55.69831606],[37.63489325,55.69838561],[37.6348923,55.69838413]]},"properties":{"id":"v2_seg_37","object_type":"heat_network","variant_id":"2","start_node_id":"v2_ch_3","end_node_id":"v2_ch_7","flow_tph":257.07,"diameter":250,"length":23.02,"laying_method":"base","depth_start":3.0,"depth_end":3.0,"cost":3115448}},{"type":"Feature","geometry":{"type":"LineString","coordinates":[[37.6348923,55.69838413],[37.63551508,55.6993843],[37.63547605,55.69942996],[37.63532359,55.69945975]]},"properties":{"id":"v2_seg_38","object_type":"heat_network","variant_id":"2","start_node_id":"v2_ch_7","end_node_id":"v2_ch_8","flow_tph":43.63,"diameter":150,"length":133.79,"laying_method":"base","depth_start":3.0,"depth_end":3.0,"cost":14115464}},{"type":"Feature","geometry":{"type":"Point","coordinates":[37.63820765,55.69784501]},"properties":{"id":"v2_ch_1","object_type":"heat_chamber","variant_id":"2","diameter":300,"cost":5000000}},{"type":"Feature","geometry":{"type":"Point","coordinates":[37.63269927,55.70001937]},"properties":{"id":"v2_ch_13","object_type":"heat_chamber","variant_id":"2","diameter":150,"cost":3000000}},{"type":"Feature","geometry":{"type":"Point","coordinates":[37.63384788,55.69760903]},"properties":{"id":"v2_ch_6","object_type":"heat_chamber","variant_id":"2","diameter":200,"cost":3000000}},{"type":"Feature","geometry":{"type":"Point","coordinates":[37.63225211,55.7001042]},"properties":{"id":"v2_ch_14","object_type":"heat_chamber","variant_id":"2","diameter":125,"cost":3000000}},{"type":"Feature","geometry":{"type":"Point","coordinates":[37.63382288,55.69761997]},"properties":{"id":"v2_ch_10","object_type":"heat_chamber","variant_id":"2","diameter":200,"cost":3000000}},{"type":"Feature","geometry":{"type":"Point","coordinates":[37.63406626,55.6975659]},"properties":{"id":"v2_ch_5","object_type":"heat_chamber","variant_id":"2","diameter":250,"cost":5000000}},{"type":"Feature","geometry":{"type":"Point","coordinates":[37.63402673,55.69757394]},"properties":{"id":"v2_ch_9","object_type":"heat_chamber","variant_id":"2","diameter":250,"cost":5000000}},{"type":"Feature","geometry":{"type":"Point","coordinates":[37.63329923,55.69862273]},"properties":{"id":"v2_ch_11","object_type":"heat_chamber","variant_id":"2","diameter":200,"cost":3000000}},{"type":"Feature","geometry":{"type":"Point","coordinates":[37.63727531,55.69810863]},"properties":{"id":"v2_ch_4","object_type":"heat_chamber","variant_id":"2","diameter":300,"cost":5000000}},{"type":"Feature","geometry":{"type":"Point","coordinates":[37.6380124,55.69702296]},"properties":{"id":"v2_tie_3","object_type":"heat_chamber","variant_id":"2","diameter":100,"cost":3000000}},{"type":"Feature","geometry":{"type":"Point","coordinates":[37.63523523,55.69831606]},"properties":{"id":"v2_ch_3","object_type":"heat_chamber","variant_id":"2","diameter":300,"cost":5000000}},{"type":"Feature","geometry":{"type":"Point","coordinates":[37.6348923,55.69838413]},"properties":{"id":"v2_ch_7","object_type":"heat_chamber","variant_id":"2","diameter":250,"cost":5000000}},{"type":"Feature","geometry":{"type":"Point","coordinates":[37.63855151,55.6977727]},"properties":{"id":"v2_tie_1","object_type":"heat_chamber","variant_id":"2","diameter":300,"cost":5000000}},{"type":"Feature","geometry":{"type":"Point","coordinates":[37.63532359,55.69945975]},"properties":{"id":"v2_ch_8","object_type":"heat_chamber","variant_id":"2","diameter":150,"cost":3000000}},{"type":"Feature","geometry":{"type":"Point","coordinates":[37.63256344,55.69980632]},"properties":{"id":"v2_ch_12","object_type":"heat_chamber","variant_id":"2","diameter":200,"cost":3000000}},{"type":"Feature","geometry":{"type":"Point","coordinates":[37.64012619,55.69947688]},"properties":{"id":"v2_tie_2","object_type":"heat_chamber","variant_id":"2","diameter":200,"cost":3000000}},{"type":"Feature","geometry":{"type":"Point","coordinates":[37.63702349,55.69795237]},"properties":{"id":"v2_ch_2","object_type":"heat_chamber","variant_id":"2","diameter":300,"cost":5000000}},{"type":"Feature","geometry":{"type":"Point","coordinates":[37.63452098,55.69813223]},"properties":{"id":"v2_node_7","object_type":"technical_node","variant_id":"2"}},{"type":"Feature","geometry":{"type":"Point","coordinates":[37.63443642,55.69810976]},"properties":{"id":"v2_node_6","object_type":"technical_node","variant_id":"2"}},{"type":"Feature","geometry":{"type":"Point","coordinates":[37.63715557,55.69813299]},"properties":{"id":"v2_node_4","object_type":"technical_node","variant_id":"2"}},{"type":"Feature","geometry":{"type":"Point","coordinates":[37.63852286,55.69777873]},"properties":{"id":"v2_node_1","object_type":"technical_node","variant_id":"2"}},{"type":"Feature","geometry":{"type":"Point","coordinates":[37.64017062,55.69946784]},"properties":{"id":"v2_node_2","object_type":"technical_node","variant_id":"2"}},{"type":"Feature","geometry":{"type":"Point","coordinates":[37.63724537,55.69811472]},"properties":{"id":"v2_node_5","object_type":"technical_node","variant_id":"2"}},{"type":"Feature","geometry":{"type":"Point","coordinates":[37.63805705,55.69701387]},"properties":{"id":"v2_node_3","object_type":"technical_node","variant_id":"2"}},{"type":"Feature","geometry":{"type":"Point","coordinates":[37.63460371,55.69815421]},"properties":{"id":"v2_dnode_8","object_type":"technical_node","variant_id":"2"}},{"type":"Feature","geometry":{"type":"Point","coordinates":[37.63448855,55.69812361]},"properties":{"id":"v2_dnode_9","object_type":"technical_node","variant_id":"2"}},{"type":"Feature","geometry":{"type":"Point","coordinates":[37.63443097,55.69810831]},"properties":{"id":"v2_dnode_10","object_type":"technical_node","variant_id":"2"}},{"type":"Feature","geometry":{"type":"Point","coordinates":[37.63437363,55.69804799]},"properties":{"id":"v2_dnode_11","object_type":"technical_node","variant_id":"2"}},{"type":"Feature","geometry":{"type":"Point","coordinates":[37.63722976,55.69811789]},"properties":{"id":"v2_dnode_12","object_type":"technical_node","variant_id":"2"}},{"type":"Feature","geometry":{"type":"Point","coordinates":[37.63716989,55.69813007]},"properties":{"id":"v2_dnode_13","object_type":"technical_node","variant_id":"2"}},{"type":"Feature","geometry":{"type":"Point","coordinates":[37.63708377,55.69804691]},"properties":{"id":"v2_dnode_14","object_type":"technical_node","variant_id":"2"}},{"type":"Feature","geometry":null,"properties":{"id":"summary_2","object_type":"variant_summary","variant_id":"2","rank":2,"variant_name":"Инженерный: общая сеть, минимум врезок","variant_description":"Инженерная трассировка общей сетью: геометрия вдоль застройки, точки объединяются в одно дерево с ветвлениями в камерах — меньше врезок в существующую сеть","construction_cost":345705643,"chamber_construction_cost":67000000,"existing_chamber_tie_in_count":0,"existing_chamber_tie_in_cost":0,"unconnected_penalty":0,"calculated_cost":345705643,"new_network_length":2519.67,"score":17.2388,"unconnected_oks_ids":[]}},{"type":"Feature","geometry":{"type":"LineString","coordinates":[[37.6380124,55.69702296],[37.63802728,55.69701993],[37.63805705,55.69701387]]},"properties":{"id":"v3_seg_2","object_type":"heat_network","variant_id":"3","start_node_id":"v3_tie_3","end_node_id":"v3_node_3","flow_tph":20.63,"diameter":100,"length":2.98,"laying_method":"special","depth_start":3.0,"depth_end":3.0,"cost":281144}},{"type":"Feature","geometry":{"type":"LineString","coordinates":[[37.63805705,55.69701387],[37.63945613,55.6967292],[37.63946749,55.69674402],[37.63953815,55.69685183]]},"properties":{"id":"v3_seg_1","object_type":"heat_network","variant_id":"3","start_node_id":"v3_node_3","end_node_id":17,"flow_tph":20.63,"diameter":100,"length":108.07,"laying_method":"base","depth_start":3.0,"depth_end":3.0,"cost":9699310}},{"type":"Feature","geometry":{"type":"LineString","coordinates":[[37.63329923,55.69862273],[37.63336531,55.69872655],[37.63201816,55.69900047],[37.63253554,55.699812],[37.63256344,55.69980632]]},"properties":{"id":"v3_seg_3","object_type":"heat_network","variant_id":"3","start_node_id":"v3_ch_10","end_node_id":"v3_ch_11","flow_tph":67.52,"diameter":200,"length":200.14,"laying_method":"base","depth_start":3.0,"depth_end":3.0,"cost":24072066}},{"type":"Feature","geometry":{"type":"LineString","coordinates":[[37.63256344,55.69980632],[37.63304448,55.69970851],[37.63299058,55.69962398],[37.63299494,55.69961769],[37.6332045,55.69957508]]},"properties":{"id":"v3_seg_4","object_type":"heat_network","variant_id":"3","start_node_id":"v3_ch_11","end_node_id":11,"flow_tph":4.08,"diameter":65,"length":56.89,"laying_method":"base","depth_start":3.0,"depth_end":3.0,"cost":4473168}},{"type":"Feature","geometry":{"type":"LineString","coordinates":[[37.63256344,55.69980632],[37.63269927,55.70001937]]},"properties":{"id":"v3_seg_5","object_type":"heat_network","variant_id":"3","start_node_id":"v3_ch_11","end_node_id":"v3_ch_12","flow_tph":63.44,"diameter":150,"length":25.2,"laying_method":"base","depth_start":3.0,"depth_end":3.0,"cost":2659026}},{"type":"Feature","geometry":{"type":"LineString","coordinates":[[37.63382288,55.69761997],[37.63288245,55.69781121],[37.6333681,55.69857295],[37.63333036,55.69861687],[37.63329923,55.69862273]]},"properties":{"id":"v3_seg_6","object_type":"heat_network","variant_id":"3","start_node_id":"v3_ch_9","end_node_id":"v3_ch_10","flow_tph":107.52,"diameter":200,"length":160.44,"laying_method":"base","depth_start":3.0,"depth_end":3.0,"cost":19296645}},{"type":"Feature","geometry":{"type":"LineString","coordinates":[[37.63329923,55.69862273],[37.63327167,55.69862792],[37.63313932,55.69865307]]},"properties":{"id":"v3_seg_7","object_type":"heat_network","variant_id":"3","start_node_id":"v3_ch_10","end_node_id":12,"flow_tph":40.0,"diameter":125,"length":10.6,"laying_method":"base","depth_start":3.0,"depth_end":3.0,"cost":1031468}},{"type":"Feature","geometry":{"type":"LineString","coordinates":[[37.63523523,55.69831606],[37.63489325,55.69838561],[37.6348923,55.69838413]]},"properties":{"id":"v3_seg_8","object_type":"heat_network","variant_id":"3","start_node_id":"v3_ch_2","end_node_id":"v3_ch_6","flow_tph":257.07,"diameter":250,"length":23.02,"laying_method":"base","depth_start":3.0,"depth_end":3.0,"cost":3115448}},{"type":"Feature","geometry":{"type":"LineString","coordinates":[[37.6348923,55.69838413],[37.63477467,55.69819964],[37.63460371,55.69815421]]},"properties":{"id":"v3_seg_9_1","object_type":"heat_network","variant_id":"3","start_node_id":"v3_ch_6","end_node_id":"v3_dnode_9","flow_tph":213.44,"diameter":250,"length":33.7,"laying_method":"base","depth_start":3.0,"depth_end":3.0,"cost":4560597}},{"type":"Feature","geometry":{"type":"LineString","coordinates":[[37.63460371,55.69815421],[37.63452098,55.69813223]]},"properties":{"id":"v3_seg_9_2","object_type":"heat_network","variant_id":"3","start_node_id":"v3_dnode_9","end_node_id":"v3_node_8","flow_tph":213.44,"diameter":250,"length":5.75,"laying_method":"base","depth_start":3.0,"depth_end":2.43,"cost":777707}},{"type":"Feature","geometry":{"type":"LineString","coordinates":[[37.63452098,55.69813223],[37.63448855,55.69812361]]},"properties":{"id":"v3_seg_31_3","object_type":"heat_network","variant_id":"3","start_node_id":"v3_node_8","end_node_id":"v3_dnode_10","flow_tph":213.44,"diameter":250,"length":2.25,"laying_method":"special","depth_start":2.43,"depth_end":2.2,"cost":381097}},{"type":"Feature","geometry":{"type":"LineString","coordinates":[[37.63448855,55.69812361],[37.63443642,55.69810976]]},"properties":{"id":"v3_seg_31_4","object_type":"heat_network","variant_id":"3","start_node_id":"v3_dnode_10","end_node_id":"v3_node_7","flow_tph":213.44,"diameter":250,"length":3.62,"laying_method":"special","depth_start":2.2,"depth_end":2.2,"cost":612585}},{"type":"Feature","geometry":{"type":"LineString","coordinates":[[37.63443642,55.69810976],[37.63443097,55.69810831]]},"properties":{"id":"v3_seg_26_5","object_type":"heat_network","variant_id":"3","start_node_id":"v3_node_7","end_node_id":"v3_dnode_11","flow_tph":213.44,"diameter":250,"length":0.38,"laying_method":"base","depth_start":2.2,"depth_end":2.2,"cost":51224}},{"type":"Feature","geometry":{"type":"LineString","coordinates":[[37.63443097,55.69810831],[37.63440823,55.69810227],[37.63437363,55.69804799]]},"properties":{"id":"v3_seg_26_6","object_type":"heat_network","variant_id":"3","start_node_id":"v3_dnode_11","end_node_id":"v3_dnode_12","flow_tph":213.44,"diameter":250,"length":8.0,"laying_method":"base","depth_start":2.2,"depth_end":3.0,"cost":1082584}},{"type":"Feature","geometry":{"type":"LineString","coordinates":[[37.63437363,55.69804799],[37.63406626,55.6975659]]},"properties":{"id":"v3_seg_26_7","object_type":"heat_network","variant_id":"3","start_node_id":"v3_dnode_12","end_node_id":"v3_ch_4","flow_tph":213.44,"diameter":250,"length":57.03,"laying_method":"base","depth_start":3.0,"depth_end":3.0,"cost":7717590}},{"type":"Feature","geometry":{"type":"LineString","coordinates":[[37.6348923,55.69838413],[37.63551508,55.6993843],[37.63547605,55.69942996],[37.63532359,55.69945975]]},"properties":{"id":"v3_seg_10","object_type":"heat_network","variant_id":"3","start_node_id":"v3_ch_6","end_node_id":"v3_ch_7","flow_tph":43.63,"diameter":150,"length":133.79,"laying_method":"base","depth_start":3.0,"depth_end":3.0,"cost":14115464}},{"type":"Feature","geometry":{"type":"LineString","coordinates":[[37.63269927,55.70001937],[37.63274419,55.70008983],[37.63273342,55.70009824],[37.6328466,55.70027576]]},"properties":{"id":"v3_seg_11","object_type":"heat_network","variant_id":"3","start_node_id":"v3_ch_12","end_node_id":3,"flow_tph":29.42,"diameter":125,"length":30.49,"laying_method":"base","depth_start":3.0,"depth_end":3.0,"cost":2965983}},{"type":"Feature","geometry":{"type":"LineString","coordinates":[[37.63269927,55.70001937],[37.63225211,55.7001042]]},"properties":{"id":"v3_seg_12","object_type":"heat_network","variant_id":"3","start_node_id":"v3_ch_12","end_node_id":"v3_ch_13","flow_tph":34.02,"diameter":125,"length":29.65,"laying_method":"base","depth_start":3.0,"depth_end":3.0,"cost":2884191}},{"type":"Feature","geometry":{"type":"LineString","coordinates":[[37.63855151,55.6977727],[37.63852286,55.69777873]]},"properties":{"id":"v3_seg_13","object_type":"heat_network","variant_id":"3","start_node_id":"v3_tie_1","end_node_id":"v3_node_1","flow_tph":27.82,"diameter":125,"length":1.92,"laying_method":"special","depth_start":3.0,"depth_end":3.0,"cost":196316}},{"type":"Feature","geometry":{"type":"LineString","coordinates":[[37.63852286,55.69777873],[37.63820765,55.69784501],[37.6382803,55.69795679]]},"properties":{"id":"v3_seg_17","object_type":"heat_network","variant_id":"3","start_node_id":"v3_node_1","end_node_id":7,"flow_tph":27.82,"diameter":125,"length":34.39,"laying_method":"base","depth_start":3.0,"depth_end":3.0,"cost":3345764}},{"type":"Feature","geometry":{"type":"LineString","coordinates":[[37.63523523,55.69831606],[37.6353248,55.69845655],[37.63532004,55.69846257],[37.63541706,55.69861473]]},"properties":{"id":"v3_seg_14","object_type":"heat_network","variant_id":"3","start_node_id":"v3_ch_2","end_node_id":5,"flow_tph":26.09,"diameter":125,"length":35.35,"laying_method":"base","depth_start":3.0,"depth_end":3.0,"cost":3439055}},{"type":"Feature","geometry":{"type":"LineString","coordinates":[[37.63225211,55.7001042],[37.63206749,55.70013923],[37.63201223,55.70004826]]},"properties":{"id":"v3_seg_15","object_type":"heat_network","variant_id":"3","start_node_id":"v3_ch_13","end_node_id":6,"flow_tph":15.99,"diameter":100,"length":22.95,"laying_method":"base","depth_start":3.0,"depth_end":3.0,"cost":2059345}},{"type":"Feature","geometry":{"type":"LineString","coordinates":[[37.63225211,55.7001042],[37.63235703,55.70026688],[37.63233769,55.70028937],[37.63220263,55.70031442]]},"properties":{"id":"v3_seg_16","object_type":"heat_network","variant_id":"3","start_node_id":"v3_ch_13","end_node_id":8,"flow_tph":18.03,"diameter":100,"length":30.99,"laying_method":"base","depth_start":3.0,"depth_end":3.0,"cost":2781136}},{"type":"Feature","geometry":{"type":"LineString","coordinates":[[37.63702349,55.69795237],[37.63645066,55.69705403],[37.63600164,55.69714535],[37.63600971,55.69716179],[37.63609324,55.69729657]]},"properties":{"id":"v3_seg_19","object_type":"heat_network","variant_id":"3","start_node_id":"v3_ch_1","end_node_id":10,"flow_tph":33.14,"diameter":125,"length":154.07,"laying_method":"base","depth_start":3.0,"depth_end":3.0,"cost":14986751}},{"type":"Feature","geometry":{"type":"LineString","coordinates":[[37.63702349,55.69795237],[37.63523523,55.69831606]]},"properties":{"id":"v3_seg_20","object_type":"heat_network","variant_id":"3","start_node_id":"v3_ch_1","end_node_id":"v3_ch_2","flow_tph":283.16,"diameter":300,"length":119.47,"laying_method":"base","depth_start":3.0,"depth_end":3.0,"cost":17923740}},{"type":"Feature","geometry":{"type":"LineString","coordinates":[[37.63532359,55.69945975],[37.63451659,55.69961744],[37.63447677,55.69960621],[37.6344054,55.69948106]]},"properties":{"id":"v3_seg_21","object_type":"heat_network","variant_id":"3","start_node_id":"v3_ch_7","end_node_id":1,"flow_tph":24.87,"diameter":125,"length":71.11,"laying_method":"base","depth_start":3.0,"depth_end":3.0,"cost":6916906}},{"type":"Feature","geometry":{"type":"LineString","coordinates":[[37.63532359,55.69945975],[37.63544823,55.69967959],[37.63458293,55.69985446]]},"properties":{"id":"v3_seg_22","object_type":"heat_network","variant_id":"3","start_node_id":"v3_ch_7","end_node_id":2,"flow_tph":18.76,"diameter":100,"length":83.46,"laying_method":"base","depth_start":3.0,"depth_end":3.0,"cost":7490357}},{"type":"Feature","geometry":{"type":"LineString","coordinates":[[37.63727531,55.69810863],[37.63724537,55.69811472]]},"properties":{"id":"v3_seg_24_1","object_type":"heat_network","variant_id":"3","start_node_id":"v3_ch_3","end_node_id":"v3_node_5","flow_tph":316.3,"diameter":300,"length":2.0,"laying_method":"base","depth_start":3.0,"depth_end":2.18,"cost":300044}},{"type":"Feature","geometry":{"type":"LineString","coordinates":[[37.63724537,55.69811472],[37.63722976,55.69811789]]},"properties":{"id":"v3_seg_35_2","object_type":"heat_network","variant_id":"3","start_node_id":"v3_node_5","end_node_id":"v3_dnode_13","flow_tph":316.3,"diameter":300,"length":1.04,"laying_method":"special","depth_start":2.18,"depth_end":1.75,"cost":179917}},{"type":"Feature","geometry":{"type":"LineString","coordinates":[[37.63722976,55.69811789],[37.63716989,55.69813007]]},"properties":{"id":"v3_seg_35_3","object_type":"heat_network","variant_id":"3","start_node_id":"v3_dnode_13","end_node_id":"v3_dnode_14","flow_tph":316.3,"diameter":300,"length":4.0,"laying_method":"special","depth_start":1.75,"depth_end":1.75,"cost":690101}},{"type":"Feature","geometry":{"type":"LineString","coordinates":[[37.63716989,55.69813007],[37.63715557,55.69813299]]},"properties":{"id":"v3_seg_35_4","object_type":"heat_network","variant_id":"3","start_node_id":"v3_dnode_14","end_node_id":"v3_node_4","flow_tph":316.3,"diameter":300,"length":0.96,"laying_method":"special","depth_start":1.75,"depth_end":1.85,"cost":165134}},{"type":"Feature","geometry":{"type":"LineString","coordinates":[[37.63715557,55.69813299],[37.6371406,55.69813603],[37.63708377,55.69804691]]},"properties":{"id":"v3_seg_18_5","object_type":"heat_network","variant_id":"3","start_node_id":"v3_node_4","end_node_id":"v3_dnode_15","flow_tph":316.3,"diameter":300,"length":11.54,"laying_method":"base","depth_start":1.85,"depth_end":3.0,"cost":1731680}},{"type":"Feature","geometry":{"type":"LineString","coordinates":[[37.63708377,55.69804691],[37.63702349,55.69795237]]},"properties":{"id":"v3_seg_18_6","object_type":"heat_network","variant_id":"3","start_node_id":"v3_dnode_15","end_node_id":"v3_ch_1","flow_tph":316.3,"diameter":300,"length":11.18,"laying_method":"base","depth_start":3.0,"depth_end":3.0,"cost":1677813}},{"type":"Feature","geometry":{"type":"LineString","coordinates":[[37.63727531,55.69810863],[37.63848675,55.70002453],[37.63618161,55.70049334],[37.63600912,55.70022283],[37.63612887,55.70019848],[37.63614235,55.7002039],[37.63638185,55.7001552]]},"properties":{"id":"v3_seg_25","object_type":"heat_network","variant_id":"3","start_node_id":"v3_ch_3","end_node_id":4,"flow_tph":47.7,"diameter":150,"length":437.47,"laying_method":"base","depth_start":3.0,"depth_end":3.0,"cost":46156309}},{"type":"Feature","geometry":{"type":"LineString","coordinates":[[37.63406626,55.6975659],[37.6340633,55.69756126],[37.6345722,55.69745777],[37.63452271,55.69737621],[37.63444627,55.69725239]]},"properties":{"id":"v3_seg_27","object_type":"heat_network","variant_id":"3","start_node_id":"v3_ch_4","end_node_id":9,"flow_tph":34.53,"diameter":125,"length":58.74,"laying_method":"base","depth_start":3.0,"depth_end":3.0,"cost":5713879}},{"type":"Feature","geometry":{"type":"LineString","coordinates":[[37.63406626,55.6975659],[37.63402673,55.69757394]]},"properties":{"id":"v3_seg_28","object_type":"heat_network","variant_id":"3","start_node_id":"v3_ch_4","end_node_id":"v3_ch_8","flow_tph":178.91,"diameter":250,"length":2.64,"laying_method":"base","depth_start":3.0,"depth_end":3.0,"cost":357325}},{"type":"Feature","geometry":{"type":"LineString","coordinates":[[37.63384788,55.69760903],[37.63381957,55.69761479],[37.63382288,55.69761997]]},"properties":{"id":"v3_seg_29","object_type":"heat_network","variant_id":"3","start_node_id":"v3_ch_5","end_node_id":"v3_ch_9","flow_tph":127.29,"diameter":200,"length":2.5,"laying_method":"base","depth_start":3.0,"depth_end":3.0,"cost":301272}},{"type":"Feature","geometry":{"type":"LineString","coordinates":[[37.63382288,55.69761997],[37.63383035,55.69763169],[37.63384177,55.69762962],[37.63390106,55.69772261]]},"properties":{"id":"v3_seg_30","object_type":"heat_network","variant_id":"3","start_node_id":"v3_ch_9","end_node_id":13,"flow_tph":19.77,"diameter":100,"length":13.14,"laying_method":"base","depth_start":3.0,"depth_end":3.0,"cost":1179335}},{"type":"Feature","geometry":{"type":"LineString","coordinates":[[37.63402673,55.69757394],[37.63342764,55.69663425],[37.63198858,55.69692688],[37.63197114,55.69694814],[37.63198146,55.69696375],[37.63203444,55.69704569]]},"properties":{"id":"v3_seg_32","object_type":"heat_network","variant_id":"3","start_node_id":"v3_ch_8","end_node_id":15,"flow_tph":31.89,"diameter":125,"length":221.48,"laying_method":"base","depth_start":3.0,"depth_end":3.0,"cost":21544346}},{"type":"Feature","geometry":{"type":"LineString","coordinates":[[37.63384788,55.69760903],[37.63380549,55.69754253],[37.63379556,55.69753996],[37.63375244,55.69747233]]},"properties":{"id":"v3_seg_33","object_type":"heat_network","variant_id":"3","start_node_id":"v3_ch_5","end_node_id":14,"flow_tph":19.73,"diameter":100,"length":16.55,"laying_method":"base","depth_start":3.0,"depth_end":3.0,"cost":1485639}},{"type":"Feature","geometry":{"type":"LineString","coordinates":[[37.64012619,55.69947688],[37.64017062,55.69946784]]},"properties":{"id":"v3_seg_34","object_type":"heat_network","variant_id":"3","start_node_id":"v3_tie_2","end_node_id":"v3_node_2","flow_tph":76.27,"diameter":200,"length":2.97,"laying_method":"special","depth_start":3.0,"depth_end":3.0,"cost":374893}},{"type":"Feature","geometry":{"type":"LineString","coordinates":[[37.64017062,55.69946784],[37.64153322,55.69919067],[37.64100488,55.69836228],[37.64094454,55.69837266],[37.64076447,55.69840739]]},"properties":{"id":"v3_seg_37","object_type":"heat_network","variant_id":"3","start_node_id":"v3_node_2","end_node_id":16,"flow_tph":76.27,"diameter":200,"length":204.96,"laying_method":"base","depth_start":3.0,"depth_end":3.0,"cost":24651723}},{"type":"Feature","geometry":{"type":"LineString","coordinates":[[37.63854059,55.69775583],[37.63851098,55.69776185]]},"properties":{"id":"v3_seg_36","object_type":"heat_network","variant_id":"3","start_node_id":"v3_tie_4","end_node_id":"v3_node_6","flow_tph":364.0,"diameter":300,"length":1.98,"laying_method":"special","depth_start":3.0,"depth_end":3.0,"cost":311640}},{"type":"Feature","geometry":{"type":"LineString","coordinates":[[37.63851098,55.69776185],[37.63735611,55.6979967],[37.63741002,55.69808123],[37.63727531,55.69810863]]},"properties":{"id":"v3_seg_23","object_type":"heat_network","variant_id":"3","start_node_id":"v3_node_6","end_node_id":"v3_ch_3","flow_tph":364.0,"diameter":300,"length":96.16,"laying_method":"base","depth_start":3.0,"depth_end":3.0,"cost":14425605}},{"type":"Feature","geometry":{"type":"LineString","coordinates":[[37.63402673,55.69757394],[37.6338486,55.69761016],[37.63384788,55.69760903]]},"properties":{"id":"v3_seg_38","object_type":"heat_network","variant_id":"3","start_node_id":"v3_ch_8","end_node_id":"v3_ch_5","flow_tph":147.02,"diameter":200,"length":12.03,"laying_method":"base","depth_start":3.0,"depth_end":3.0,"cost":1447452}},{"type":"Feature","geometry":{"type":"Point","coordinates":[37.63256344,55.69980632]},"properties":{"id":"v3_ch_11","object_type":"heat_chamber","variant_id":"3","diameter":200,"cost":3000000}},{"type":"Feature","geometry":{"type":"Point","coordinates":[37.63329923,55.69862273]},"properties":{"id":"v3_ch_10","object_type":"heat_chamber","variant_id":"3","diameter":200,"cost":3000000}},{"type":"Feature","geometry":{"type":"Point","coordinates":[37.6348923,55.69838413]},"properties":{"id":"v3_ch_6","object_type":"heat_chamber","variant_id":"3","diameter":250,"cost":5000000}},{"type":"Feature","geometry":{"type":"Point","coordinates":[37.63269927,55.70001937]},"properties":{"id":"v3_ch_12","object_type":"heat_chamber","variant_id":"3","diameter":150,"cost":3000000}},{"type":"Feature","geometry":{"type":"Point","coordinates":[37.63855151,55.6977727]},"properties":{"id":"v3_tie_1","object_type":"heat_chamber","variant_id":"3","diameter":125,"cost":3000000}},{"type":"Feature","geometry":{"type":"Point","coordinates":[37.63225211,55.7001042]},"properties":{"id":"v3_ch_13","object_type":"heat_chamber","variant_id":"3","diameter":125,"cost":3000000}},{"type":"Feature","geometry":{"type":"Point","coordinates":[37.63702349,55.69795237]},"properties":{"id":"v3_ch_1","object_type":"heat_chamber","variant_id":"3","diameter":300,"cost":5000000}},{"type":"Feature","geometry":{"type":"Point","coordinates":[37.63532359,55.69945975]},"properties":{"id":"v3_ch_7","object_type":"heat_chamber","variant_id":"3","diameter":150,"cost":3000000}},{"type":"Feature","geometry":{"type":"Point","coordinates":[37.63727531,55.69810863]},"properties":{"id":"v3_ch_3","object_type":"heat_chamber","variant_id":"3","diameter":300,"cost":5000000}},{"type":"Feature","geometry":{"type":"Point","coordinates":[37.63406626,55.6975659]},"properties":{"id":"v3_ch_4","object_type":"heat_chamber","variant_id":"3","diameter":250,"cost":5000000}},{"type":"Feature","geometry":{"type":"Point","coordinates":[37.63382288,55.69761997]},"properties":{"id":"v3_ch_9","object_type":"heat_chamber","variant_id":"3","diameter":200,"cost":3000000}},{"type":"Feature","geometry":{"type":"Point","coordinates":[37.63523523,55.69831606]},"properties":{"id":"v3_ch_2","object_type":"heat_chamber","variant_id":"3","diameter":300,"cost":5000000}},{"type":"Feature","geometry":{"type":"Point","coordinates":[37.6380124,55.69702296]},"properties":{"id":"v3_tie_3","object_type":"heat_chamber","variant_id":"3","diameter":100,"cost":3000000}},{"type":"Feature","geometry":{"type":"Point","coordinates":[37.64012619,55.69947688]},"properties":{"id":"v3_tie_2","object_type":"heat_chamber","variant_id":"3","diameter":200,"cost":3000000}},{"type":"Feature","geometry":{"type":"Point","coordinates":[37.63854059,55.69775583]},"properties":{"id":"v3_tie_4","object_type":"heat_chamber","variant_id":"3","diameter":300,"cost":5000000}},{"type":"Feature","geometry":{"type":"Point","coordinates":[37.63384788,55.69760903]},"properties":{"id":"v3_ch_5","object_type":"heat_chamber","variant_id":"3","diameter":200,"cost":3000000}},{"type":"Feature","geometry":{"type":"Point","coordinates":[37.63402673,55.69757394]},"properties":{"id":"v3_ch_8","object_type":"heat_chamber","variant_id":"3","diameter":250,"cost":5000000}},{"type":"Feature","geometry":{"type":"Point","coordinates":[37.63805705,55.69701387]},"properties":{"id":"v3_node_3","object_type":"technical_node","variant_id":"3"}},{"type":"Feature","geometry":{"type":"Point","coordinates":[37.63852286,55.69777873]},"properties":{"id":"v3_node_1","object_type":"technical_node","variant_id":"3"}},{"type":"Feature","geometry":{"type":"Point","coordinates":[37.63443642,55.69810976]},"properties":{"id":"v3_node_7","object_type":"technical_node","variant_id":"3"}},{"type":"Feature","geometry":{"type":"Point","coordinates":[37.63452098,55.69813223]},"properties":{"id":"v3_node_8","object_type":"technical_node","variant_id":"3"}},{"type":"Feature","geometry":{"type":"Point","coordinates":[37.63715557,55.69813299]},"properties":{"id":"v3_node_4","object_type":"technical_node","variant_id":"3"}},{"type":"Feature","geometry":{"type":"Point","coordinates":[37.63851098,55.69776185]},"properties":{"id":"v3_node_6","object_type":"technical_node","variant_id":"3"}},{"type":"Feature","geometry":{"type":"Point","coordinates":[37.64017062,55.69946784]},"properties":{"id":"v3_node_2","object_type":"technical_node","variant_id":"3"}},{"type":"Feature","geometry":{"type":"Point","coordinates":[37.63724537,55.69811472]},"properties":{"id":"v3_node_5","object_type":"technical_node","variant_id":"3"}},{"type":"Feature","geometry":{"type":"Point","coordinates":[37.63460371,55.69815421]},"properties":{"id":"v3_dnode_9","object_type":"technical_node","variant_id":"3"}},{"type":"Feature","geometry":{"type":"Point","coordinates":[37.63448855,55.69812361]},"properties":{"id":"v3_dnode_10","object_type":"technical_node","variant_id":"3"}},{"type":"Feature","geometry":{"type":"Point","coordinates":[37.63443097,55.69810831]},"properties":{"id":"v3_dnode_11","object_type":"technical_node","variant_id":"3"}},{"type":"Feature","geometry":{"type":"Point","coordinates":[37.63437363,55.69804799]},"properties":{"id":"v3_dnode_12","object_type":"technical_node","variant_id":"3"}},{"type":"Feature","geometry":{"type":"Point","coordinates":[37.63722976,55.69811789]},"properties":{"id":"v3_dnode_13","object_type":"technical_node","variant_id":"3"}},{"type":"Feature","geometry":{"type":"Point","coordinates":[37.63716989,55.69813007]},"properties":{"id":"v3_dnode_14","object_type":"technical_node","variant_id":"3"}},{"type":"Feature","geometry":{"type":"Point","coordinates":[37.63708377,55.69804691]},"properties":{"id":"v3_dnode_15","object_type":"technical_node","variant_id":"3"}},{"type":"Feature","geometry":null,"properties":{"id":"summary_3","object_type":"variant_summary","variant_id":"3","rank":3,"variant_name":"Инженерный: вдоль застройки, свои врезки","variant_description":"Инженерная трассировка вдоль застройки: сетка развёрнута по преобладающему направлению существующей сети, повороты прямые (самокомпенсация), косые изломы исключены; подключение ближних точек собственными врезками, чтобы не перегружать существующую сеть","construction_cost":346610775,"chamber_construction_cost":65000000,"existing_chamber_tie_in_count":0,"existing_chamber_tie_in_cost":0,"unconnected_penalty":0,"calculated_cost":346610775,"new_network_length":2547.08,"score":17.3463,"unconnected_oks_ids":[]}}]}