{"type": "FeatureCollection", "name": "moscow_butovo_test_case", "description": "Синтетический проверочный набор (Северное Бутово, условная геометрия). Не является выгрузкой из рабочих систем.", "crs": {"type": "name", "properties": {"name": "urn:ogc:def:crs:OGC:1.3:CRS84"}}, "features": [{"type": "Feature", "properties": {"id": "S1", "object_type": "source", "name": "РТС «Южное Бутово» (условный источник)"}, "geometry": {"type": "Point", "coordinates": [37.55827989, 55.56963504]}}, {"type": "Feature", "properties": {"id": "HN1", "object_type": "heat_network", "diameter": 600, "flow_tph": 1450, "upstream_object_id": "S1"}, "geometry": {"type": "LineString", "coordinates": [[37.55827989, 55.56963504], [37.56123282, 55.5699899]]}}, {"type": "Feature", "properties": {"id": "HN2", "object_type": "heat_network", "diameter": 600, "flow_tph": 1330, "upstream_object_id": "HN1"}, "geometry": {"type": "LineString", "coordinates": [[37.56123282, 55.5699899], [37.56418575, 55.57034477]]}}, {"type": "Feature", "properties": {"id": "HN3", "object_type": "heat_network", "diameter": 500, "flow_tph": 1210, "upstream_object_id": "HN2"}, "geometry": {"type": "LineString", "coordinates": [[37.56418575, 55.57034477], [37.5672941, 55.5707183]]}}, {"type": "Feature", "properties": {"id": "HN4", "object_type": "heat_network", "diameter": 500, "flow_tph": 1090, "upstream_object_id": "HN3"}, "geometry": {"type": "LineString", "coordinates": [[37.5672941, 55.5707183], [37.57024703, 55.57107317]]}}, {"type": "Feature", "properties": {"id": "HN5", "object_type": "heat_network", "diameter": 300, "flow_tph": 260, "upstream_object_id": "HN2"}, "geometry": {"type": "LineString", "coordinates": [[37.56418575, 55.57034477], [37.5637563, 55.57148705]]}}, {"type": "Feature", "properties": {"id": "HN6", "object_type": "heat_network", "diameter": 300, "flow_tph": 200, "upstream_object_id": "HN5"}, "geometry": {"type": "LineString", "coordinates": [[37.5637563, 55.57148705], [37.56332684, 55.57262934]]}}, {"type": "Feature", "properties": {"id": "CH1", "object_type": "heat_chamber", "diameter": 500, "upstream_object_id": "S1"}, "geometry": {"type": "Point", "coordinates": [37.56123282, 55.5699899]}}, {"type": "Feature", "properties": {"id": "CH2", "object_type": "heat_chamber", "diameter": 500, "upstream_object_id": "S1"}, "geometry": {"type": "Point", "coordinates": [37.56418575, 55.57034477]}}, {"type": "Feature", "properties": {"id": "CH3", "object_type": "heat_chamber", "diameter": 500, "upstream_object_id": "S1"}, "geometry": {"type": "Point", "coordinates": [37.5672941, 55.5707183]}}, {"type": "Feature", "properties": {"id": "CH4", "object_type": "heat_chamber", "diameter": 300, "upstream_object_id": "S1"}, "geometry": {"type": "Point", "coordinates": [37.5637563, 55.57148705]}}, {"type": "Feature", "properties": {"id": "CH5", "object_type": "heat_chamber", "diameter": 300, "upstream_object_id": "S1"}, "geometry": {"type": "Point", "coordinates": [37.56332684, 55.57262934]}}, {"type": "Feature", "properties": {"id": "B1", "object_type": "restriction", "restriction_type": "oks_existing", "name": "существующий дом 1"}, "geometry": {"type": "Polygon", "coordinates": [[[37.55841453, 55.57165329], [37.55950245, 55.57178403], [37.55942316, 55.57199491], [37.55833524, 55.57186417], [37.55841453, 55.57165329]]]}}, {"type": "Feature", "properties": {"id": "B2", "object_type": "restriction", "restriction_type": "oks_existing", "name": "существующий дом 2"}, "geometry": {"type": "Polygon", "coordinates": [[[37.56032616, 55.57188302], [37.56163167, 55.5720399], [37.56155238, 55.57225079], [37.56024688, 55.5720939], [37.56032616, 55.57188302]]]}}, {"type": "Feature", "properties": {"id": "B3", "object_type": "restriction", "restriction_type": "oks_existing", "name": "существующий дом 3"}, "geometry": {"type": "Polygon", "coordinates": [[[37.56245538, 55.57213889], [37.5635433, 55.57226963], [37.56346401, 55.57248051], [37.56237609, 55.57234977], [37.56245538, 55.57213889]]]}}, {"type": "Feature", "properties": {"id": "B4", "object_type": "restriction", "restriction_type": "oks_existing", "name": "существующий дом 4"}, "geometry": {"type": "Polygon", "coordinates": [[[37.56427376, 55.57235741], [37.56576577, 55.57253671], [37.56568648, 55.57274759], [37.56419448, 55.57256829], [37.56427376, 55.57235741]]]}}, {"type": "Feature", "properties": {"id": "B5", "object_type": "restriction", "restriction_type": "oks_existing", "name": "существующий дом 5"}, "geometry": {"type": "Polygon", "coordinates": [[[37.56680706, 55.57266184], [37.56789498, 55.57279258], [37.5678157, 55.57300347], [37.56672778, 55.57287273], [37.56680706, 55.57266184]]]}}, {"type": "Feature", "properties": {"id": "B6", "object_type": "restriction", "restriction_type": "oks_existing", "name": "существующий дом 6"}, "geometry": {"type": "Polygon", "coordinates": [[[37.5687187, 55.57289157], [37.5700242, 55.57304846], [37.56994492, 55.57325934], [37.56863941, 55.57310245], [37.5687187, 55.57289157]]]}}, {"type": "Feature", "properties": {"id": "B7", "object_type": "restriction", "restriction_type": "oks_existing", "name": "существующий дом 7"}, "geometry": {"type": "Polygon", "coordinates": [[[37.55803966, 55.57286642], [37.55897216, 55.57297848], [37.55887306, 55.57324209], [37.55794055, 55.57313002], [37.55803966, 55.57286642]]]}}, {"type": "Feature", "properties": {"id": "B8", "object_type": "restriction", "restriction_type": "oks_existing", "name": "существующий дом 8"}, "geometry": {"type": "Polygon", "coordinates": [[[37.56068175, 55.57318393], [37.56161425, 55.57329599], [37.56151515, 55.57355959], [37.56058265, 55.57344753], [37.56068175, 55.57318393]]]}}, {"type": "Feature", "properties": {"id": "B9", "object_type": "restriction", "restriction_type": "oks_existing", "name": "существующий дом 9"}, "geometry": {"type": "Polygon", "coordinates": [[[37.56332385, 55.57350144], [37.56425635, 55.5736135], [37.56415724, 55.5738771], [37.56322474, 55.57376504], [37.56332385, 55.57350144]]]}}, {"type": "Feature", "properties": {"id": "B10", "object_type": "restriction", "restriction_type": "oks_existing", "name": "существующий дом 10"}, "geometry": {"type": "Polygon", "coordinates": [[[37.56596594, 55.57381894], [37.56689844, 55.57393101], [37.56679934, 55.57419461], [37.56586683, 55.57408255], [37.56596594, 55.57381894]]]}}, {"type": "Feature", "properties": {"id": "B11", "object_type": "restriction", "restriction_type": "oks_existing", "name": "существующий дом 11"}, "geometry": {"type": "Polygon", "coordinates": [[[37.56026489, 55.57066339], [37.56101089, 55.57075304], [37.56085232, 55.57117481], [37.56010632, 55.57108516], [37.56026489, 55.57066339]]]}}, {"type": "Feature", "properties": {"id": "B12", "object_type": "restriction", "restriction_type": "oks_existing", "name": "существующий дом 12"}, "geometry": {"type": "Polygon", "coordinates": [[[37.56477199, 55.57120502], [37.56551799, 55.57129467], [37.56535942, 55.57171644], [37.56461342, 55.57162679], [37.56477199, 55.57120502]]]}}, {"type": "Feature", "properties": {"id": "B13", "object_type": "restriction", "restriction_type": "oks_existing", "name": "существующий дом 13"}, "geometry": {"type": "Polygon", "coordinates": [[[37.56881284, 55.57169062], [37.56955884, 55.57178027], [37.56940027, 55.57220204], [37.56865427, 55.57211239], [37.56881284, 55.57169062]]]}}, {"type": "Feature", "properties": {"id": "N1", "object_type": "restriction", "restriction_type": "oks_future", "name": "перспективный ОКС 1"}, "geometry": {"type": "Polygon", "coordinates": [[[37.5579799, 55.57406232], [37.5590989, 55.57419679], [37.55900641, 55.57444282], [37.5578874, 55.57430835], [37.5579799, 55.57406232]]]}}, {"type": "Feature", "properties": {"id": "P1", "object_type": "oks_connection_point", "oks_id": "N1", "heat_load": 4.6, "flow_tph": 131.84}, "geometry": {"type": "Point", "coordinates": [37.55854271, 55.57412077]}}, {"type": "Feature", "properties": {"id": "N2", "object_type": "restriction", "restriction_type": "oks_future", "name": "перспективный ОКС 2"}, "geometry": {"type": "Polygon", "coordinates": [[[37.56048212, 55.57436302], [37.56188087, 55.57453111], [37.56178838, 55.57477714], [37.56038962, 55.57460905], [37.56048212, 55.57436302]]]}}, {"type": "Feature", "properties": {"id": "P2", "object_type": "oks_connection_point", "oks_id": "N2", "heat_load": 6.1, "flow_tph": 174.84}, "geometry": {"type": "Point", "coordinates": [37.5611848, 55.57443828]}}, {"type": "Feature", "properties": {"id": "N3", "object_type": "restriction", "restriction_type": "oks_future", "name": "перспективный ОКС 3"}, "geometry": {"type": "Polygon", "coordinates": [[[37.56326409, 55.57469733], [37.56438309, 55.57483181], [37.5642906, 55.57507784], [37.56317159, 55.57494336], [37.56326409, 55.57469733]]]}}, {"type": "Feature", "properties": {"id": "P3", "object_type": "oks_connection_point", "oks_id": "N3", "heat_load": 3.9, "flow_tph": 111.78}, "geometry": {"type": "Point", "coordinates": [37.56382689, 55.57475578]}}, {"type": "Feature", "properties": {"id": "N4", "object_type": "restriction", "restriction_type": "oks_future", "name": "перспективный ОКС 4"}, "geometry": {"type": "Polygon", "coordinates": [[[37.56595281, 55.57502044], [37.56697856, 55.57514371], [37.56688606, 55.57538974], [37.56586031, 55.57526647], [37.56595281, 55.57502044]]]}}, {"type": "Feature", "properties": {"id": "P4", "object_type": "oks_connection_point", "oks_id": "N4", "heat_load": 2.8, "flow_tph": 80.25}, "geometry": {"type": "Point", "coordinates": [37.56646899, 55.57507329]}}, {"type": "Feature", "properties": {"id": "N5", "object_type": "restriction", "restriction_type": "oks_future", "name": "перспективный ОКС 5"}, "geometry": {"type": "Polygon", "coordinates": [[[37.56908089, 55.57417491], [37.5700134, 55.57428697], [37.56990108, 55.57458572], [37.56896857, 55.57447366], [37.56908089, 55.57417491]]]}}, {"type": "Feature", "properties": {"id": "P5", "object_type": "oks_connection_point", "oks_id": "N5", "heat_load": 5.2, "flow_tph": 149.04}, "geometry": {"type": "Point", "coordinates": [37.56955045, 55.57422215]}}, {"type": "Feature", "properties": {"id": "N6", "object_type": "restriction", "restriction_type": "oks_future", "name": "перспективный ОКС 6"}, "geometry": {"type": "Polygon", "coordinates": [[[37.56976329, 55.57300792], [37.57085122, 55.57313866], [37.57076532, 55.57336711], [37.5696774, 55.57323638], [37.56976329, 55.57300792]]]}}, {"type": "Feature", "properties": {"id": "P6", "object_type": "oks_connection_point", "oks_id": "N6", "heat_load": 3.4, "flow_tph": 97.45}, "geometry": {"type": "Point", "coordinates": [37.57031056, 55.5730645]}}, {"type": "Feature", "properties": {"id": "N7", "object_type": "restriction", "restriction_type": "oks_future", "name": "перспективный ОКС 7"}, "geometry": {"type": "Polygon", "coordinates": [[[37.55698943, 55.57272184], [37.55785976, 55.57282643], [37.55774744, 55.57312519], [37.55687711, 55.5730206], [37.55698943, 55.57272184]]]}}, {"type": "Feature", "properties": {"id": "P7", "object_type": "oks_connection_point", "oks_id": "N7", "heat_load": 2.1, "flow_tph": 60.19}, "geometry": {"type": "Point", "coordinates": [37.5574279, 55.57276535]}}, {"type": "Feature", "properties": {"id": "R1", "object_type": "restriction", "restriction_type": "road", "name": "Куликовская улица (условно)"}, "geometry": {"type": "Polygon", "coordinates": [[[37.55589339, 55.57209421], [37.5729893, 55.57414867], [37.57291662, 55.57434198], [37.55582072, 55.57228751], [37.55589339, 55.57209421]]]}}, {"type": "Feature", "properties": {"id": "R2", "object_type": "restriction", "restriction_type": "road", "name": "внутриквартальный проезд"}, "geometry": {"type": "Polygon", "coordinates": [[[37.55670605, 55.56993265], [37.57380196, 55.57198711], [37.57375571, 55.57211013], [37.5566598, 55.57005567], [37.55670605, 55.56993265]]]}}, {"type": "Feature", "properties": {"id": "T1", "object_type": "restriction", "restriction_type": "tram_tracks", "name": "трамвайные пути (условно)"}, "geometry": {"type": "Polygon", "coordinates": [[[37.56871223, 55.57143975], [37.56889873, 55.57146217], [37.56724698, 55.57585557], [37.56706048, 55.57583316], [37.56871223, 55.57143975]]]}}, {"type": "Feature", "properties": {"id": "Z1", "object_type": "restriction", "restriction_type": "railway", "name": "железная дорога курского направления (условно)"}, "geometry": {"type": "Polygon", "coordinates": [[[37.57346047, 55.5694389], [37.57408214, 55.56951361], [37.571109, 55.57742173], [37.57048733, 55.57734703], [37.57346047, 55.5694389]]]}}, {"type": "Feature", "properties": {"id": "W1", "object_type": "restriction", "restriction_type": "water", "name": "река Битца (условно)"}, "geometry": {"type": "Polygon", "coordinates": [[[37.55663261, 55.56796767], [37.57528269, 55.57020891], [37.57508448, 55.57073612], [37.5564344, 55.56849488], [37.55663261, 55.56796767]]]}}, {"type": "Feature", "properties": {"id": "G1", "object_type": "restriction", "restriction_type": "park", "name": "Бутовский парк (условно)"}, "geometry": {"type": "Polygon", "coordinates": [[[37.55816615, 55.57058567], [37.56049741, 55.57086583], [37.5602001, 55.57165664], [37.55786884, 55.57137648], [37.55816615, 55.57058567]]]}}, {"type": "Feature", "properties": {"id": "SO1", "object_type": "restriction", "restriction_type": "social_area", "name": "территория школы (условно)"}, "geometry": {"type": "Polygon", "coordinates": [[[37.56463325, 55.57347512], [37.56649826, 55.57369924], [37.56626702, 55.57431432], [37.56440201, 55.57409019], [37.56463325, 55.57347512]]]}}]}