{"type": "FeatureCollection", "name": "moscow_butovo_reference_route", "description": "Эталонная трасса для сравнения геометрии. Построена вручную по практике проектирования, в расчёт сервиса не входит.", "crs": {"type": "name", "properties": {"name": "urn:ogc:def:crs:OGC:1.3:CRS84"}}, "features": [{"type": "Feature", "properties": {"id": "REF_trunk", "object_type": "reference_route", "note": "эталон: ствол вдоль проезда и улицы, повороты 90°"}, "geometry": {"type": "LineString", "coordinates": [[37.56418575, 55.57034477], [37.5637563, 55.57148705], [37.56332684, 55.57262934], [37.56274873, 55.57416703], [37.56663416, 55.57463395]]}}, {"type": "Feature", "properties": {"id": "REF_trunk_west", "object_type": "reference_route", "note": "эталон: западная часть ствола"}, "geometry": {"type": "LineString", "coordinates": [[37.56274873, 55.57416703], [37.55870788, 55.57368143]]}}, {"type": "Feature", "properties": {"id": "REF_P1", "object_type": "reference_route", "note": "эталон: ввод к точке P1 по нормали к стене"}, "geometry": {"type": "LineString", "coordinates": [[37.55870788, 55.57368143], [37.55854271, 55.57412077]]}}, {"type": "Feature", "properties": {"id": "REF_P2", "object_type": "reference_route", "note": "эталон: ввод к точке P2 по нормали к стене"}, "geometry": {"type": "LineString", "coordinates": [[37.56134997, 55.57399893], [37.5611848, 55.57443828]]}}, {"type": "Feature", "properties": {"id": "REF_P3", "object_type": "reference_route", "note": "эталон: ввод к точке P3 по нормали к стене"}, "geometry": {"type": "LineString", "coordinates": [[37.56399207, 55.57431644], [37.56382689, 55.57475578]]}}, {"type": "Feature", "properties": {"id": "REF_P4", "object_type": "reference_route", "note": "эталон: ввод к точке P4 по нормали к стене"}, "geometry": {"type": "LineString", "coordinates": [[37.56663416, 55.57463395], [37.56646899, 55.57507329]]}}]}